[
  {
    "name": "Helsinki",
    "zip": "00100",
    "slug": "helsinki-00100"
  },
  {
    "name": "Helsinki",
    "zip": "00120",
    "slug": "helsinki-00120"
  },
  {
    "name": "Helsinki",
    "zip": "00130",
    "slug": "helsinki-00130"
  },
  {
    "name": "Helsinki",
    "zip": "00140",
    "slug": "helsinki-00140"
  },
  {
    "name": "Helsinki",
    "zip": "00150",
    "slug": "helsinki-00150"
  },
  {
    "name": "Helsinki",
    "zip": "00160",
    "slug": "helsinki-00160"
  },
  {
    "name": "Helsinki",
    "zip": "00170",
    "slug": "helsinki-00170"
  },
  {
    "name": "Helsinki",
    "zip": "00180",
    "slug": "helsinki-00180"
  },
  {
    "name": "Helsinki",
    "zip": "00190",
    "slug": "helsinki-00190"
  },
  {
    "name": "Helsinki",
    "zip": "00200",
    "slug": "helsinki-00200"
  },
  {
    "name": "Helsinki",
    "zip": "00210",
    "slug": "helsinki-00210"
  },
  {
    "name": "Helsinki",
    "zip": "00220",
    "slug": "helsinki-00220"
  },
  {
    "name": "Helsinki",
    "zip": "00230",
    "slug": "helsinki-00230"
  },
  {
    "name": "Helsinki",
    "zip": "00240",
    "slug": "helsinki-00240"
  },
  {
    "name": "Helsinki",
    "zip": "00250",
    "slug": "helsinki-00250"
  },
  {
    "name": "Helsinki",
    "zip": "00260",
    "slug": "helsinki-00260"
  },
  {
    "name": "Helsinki",
    "zip": "00270",
    "slug": "helsinki-00270"
  },
  {
    "name": "Helsinki",
    "zip": "00280",
    "slug": "helsinki-00280"
  },
  {
    "name": "Helsinki",
    "zip": "00290",
    "slug": "helsinki-00290"
  },
  {
    "name": "Helsinki",
    "zip": "00300",
    "slug": "helsinki-00300"
  },
  {
    "name": "Helsinki",
    "zip": "00310",
    "slug": "helsinki-00310"
  },
  {
    "name": "Helsinki",
    "zip": "00320",
    "slug": "helsinki-00320"
  },
  {
    "name": "Helsinki",
    "zip": "00330",
    "slug": "helsinki-00330"
  },
  {
    "name": "Helsinki",
    "zip": "00340",
    "slug": "helsinki-00340"
  },
  {
    "name": "Helsinki",
    "zip": "00350",
    "slug": "helsinki-00350"
  },
  {
    "name": "Helsinki",
    "zip": "00360",
    "slug": "helsinki-00360"
  },
  {
    "name": "Helsinki",
    "zip": "00370",
    "slug": "helsinki-00370"
  },
  {
    "name": "Helsinki",
    "zip": "00380",
    "slug": "helsinki-00380"
  },
  {
    "name": "Helsinki",
    "zip": "00390",
    "slug": "helsinki-00390"
  },
  {
    "name": "Helsinki",
    "zip": "00400",
    "slug": "helsinki-00400"
  },
  {
    "name": "Helsinki",
    "zip": "00410",
    "slug": "helsinki-00410"
  },
  {
    "name": "Helsinki",
    "zip": "00420",
    "slug": "helsinki-00420"
  },
  {
    "name": "Helsinki",
    "zip": "00430",
    "slug": "helsinki-00430"
  },
  {
    "name": "Helsinki",
    "zip": "00440",
    "slug": "helsinki-00440"
  },
  {
    "name": "Helsinki",
    "zip": "00500",
    "slug": "helsinki-00500"
  },
  {
    "name": "Helsinki",
    "zip": "00510",
    "slug": "helsinki-00510"
  },
  {
    "name": "Helsinki",
    "zip": "00520",
    "slug": "helsinki-00520"
  },
  {
    "name": "Helsinki",
    "zip": "00530",
    "slug": "helsinki-00530"
  },
  {
    "name": "Helsinki",
    "zip": "00540",
    "slug": "helsinki-00540"
  },
  {
    "name": "Helsinki",
    "zip": "00550",
    "slug": "helsinki-00550"
  },
  {
    "name": "Helsinki",
    "zip": "00560",
    "slug": "helsinki-00560"
  },
  {
    "name": "Helsinki",
    "zip": "00570",
    "slug": "helsinki-00570"
  },
  {
    "name": "Helsinki",
    "zip": "00580",
    "slug": "helsinki-00580"
  },
  {
    "name": "Helsinki",
    "zip": "00590",
    "slug": "helsinki-00590"
  },
  {
    "name": "Helsinki",
    "zip": "00600",
    "slug": "helsinki-00600"
  },
  {
    "name": "Helsinki",
    "zip": "00610",
    "slug": "helsinki-00610"
  },
  {
    "name": "Helsinki",
    "zip": "00620",
    "slug": "helsinki-00620"
  },
  {
    "name": "Helsinki",
    "zip": "00630",
    "slug": "helsinki-00630"
  },
  {
    "name": "Helsinki",
    "zip": "00640",
    "slug": "helsinki-00640"
  },
  {
    "name": "Helsinki",
    "zip": "00650",
    "slug": "helsinki-00650"
  },
  {
    "name": "Helsinki",
    "zip": "00660",
    "slug": "helsinki-00660"
  },
  {
    "name": "Helsinki",
    "zip": "00670",
    "slug": "helsinki-00670"
  },
  {
    "name": "Helsinki",
    "zip": "00680",
    "slug": "helsinki-00680"
  },
  {
    "name": "Helsinki",
    "zip": "00690",
    "slug": "helsinki-00690"
  },
  {
    "name": "Helsinki",
    "zip": "00700",
    "slug": "helsinki-00700"
  },
  {
    "name": "Helsinki",
    "zip": "00710",
    "slug": "helsinki-00710"
  },
  {
    "name": "Helsinki",
    "zip": "00720",
    "slug": "helsinki-00720"
  },
  {
    "name": "Helsinki",
    "zip": "00730",
    "slug": "helsinki-00730"
  },
  {
    "name": "Helsinki",
    "zip": "00740",
    "slug": "helsinki-00740"
  },
  {
    "name": "Helsinki",
    "zip": "00750",
    "slug": "helsinki-00750"
  },
  {
    "name": "Helsinki",
    "zip": "00760",
    "slug": "helsinki-00760"
  },
  {
    "name": "Helsinki",
    "zip": "00770",
    "slug": "helsinki-00770"
  },
  {
    "name": "Helsinki",
    "zip": "00780",
    "slug": "helsinki-00780"
  },
  {
    "name": "Helsinki",
    "zip": "00790",
    "slug": "helsinki-00790"
  },
  {
    "name": "Helsinki",
    "zip": "00800",
    "slug": "helsinki-00800"
  },
  {
    "name": "Helsinki",
    "zip": "00810",
    "slug": "helsinki-00810"
  },
  {
    "name": "Helsinki",
    "zip": "00820",
    "slug": "helsinki-00820"
  },
  {
    "name": "Helsinki",
    "zip": "00830",
    "slug": "helsinki-00830"
  },
  {
    "name": "Helsinki",
    "zip": "00840",
    "slug": "helsinki-00840"
  },
  {
    "name": "Helsinki",
    "zip": "00850",
    "slug": "helsinki-00850"
  },
  {
    "name": "Helsinki",
    "zip": "00860",
    "slug": "helsinki-00860"
  },
  {
    "name": "Helsinki",
    "zip": "00870",
    "slug": "helsinki-00870"
  },
  {
    "name": "Helsinki",
    "zip": "00880",
    "slug": "helsinki-00880"
  },
  {
    "name": "Helsinki",
    "zip": "00890",
    "slug": "helsinki-00890"
  },
  {
    "name": "Helsinki",
    "zip": "00900",
    "slug": "helsinki-00900"
  },
  {
    "name": "Helsinki",
    "zip": "00910",
    "slug": "helsinki-00910"
  },
  {
    "name": "Helsinki",
    "zip": "00920",
    "slug": "helsinki-00920"
  },
  {
    "name": "Helsinki",
    "zip": "00930",
    "slug": "helsinki-00930"
  },
  {
    "name": "Helsinki",
    "zip": "00940",
    "slug": "helsinki-00940"
  },
  {
    "name": "Helsinki",
    "zip": "00950",
    "slug": "helsinki-00950"
  },
  {
    "name": "Helsinki",
    "zip": "00960",
    "slug": "helsinki-00960"
  },
  {
    "name": "Helsinki",
    "zip": "00970",
    "slug": "helsinki-00970"
  },
  {
    "name": "Helsinki",
    "zip": "00980",
    "slug": "helsinki-00980"
  },
  {
    "name": "Helsinki",
    "zip": "00990",
    "slug": "helsinki-00990"
  },
  {
    "name": "Sipoo",
    "zip": "01150",
    "slug": "sipoo-01150"
  },
  {
    "name": "Sipoo",
    "zip": "01190",
    "slug": "sipoo-01190"
  },
  {
    "name": "Vantaa",
    "zip": "01200",
    "slug": "vantaa-01200"
  },
  {
    "name": "Vantaa",
    "zip": "01230",
    "slug": "vantaa-01230"
  },
  {
    "name": "Vantaa",
    "zip": "01260",
    "slug": "vantaa-01260"
  },
  {
    "name": "Vantaa",
    "zip": "01280",
    "slug": "vantaa-01280"
  },
  {
    "name": "Vantaa",
    "zip": "01300",
    "slug": "vantaa-01300"
  },
  {
    "name": "Vantaa",
    "zip": "01340",
    "slug": "vantaa-01340"
  },
  {
    "name": "Vantaa",
    "zip": "01350",
    "slug": "vantaa-01350"
  },
  {
    "name": "Vantaa",
    "zip": "01360",
    "slug": "vantaa-01360"
  },
  {
    "name": "Vantaa",
    "zip": "01370",
    "slug": "vantaa-01370"
  },
  {
    "name": "Vantaa",
    "zip": "01380",
    "slug": "vantaa-01380"
  },
  {
    "name": "Vantaa",
    "zip": "01390",
    "slug": "vantaa-01390"
  },
  {
    "name": "Vantaa",
    "zip": "01400",
    "slug": "vantaa-01400"
  },
  {
    "name": "Vantaa",
    "zip": "01420",
    "slug": "vantaa-01420"
  },
  {
    "name": "Vantaa",
    "zip": "01450",
    "slug": "vantaa-01450"
  },
  {
    "name": "Vantaa",
    "zip": "01480",
    "slug": "vantaa-01480"
  },
  {
    "name": "Vantaa",
    "zip": "01490",
    "slug": "vantaa-01490"
  },
  {
    "name": "Vantaa",
    "zip": "01510",
    "slug": "vantaa-01510"
  },
  {
    "name": "Vantaa",
    "zip": "01520",
    "slug": "vantaa-01520"
  },
  {
    "name": "Vantaa",
    "zip": "01530",
    "slug": "vantaa-01530"
  },
  {
    "name": "Vantaa",
    "zip": "01600",
    "slug": "vantaa-01600"
  },
  {
    "name": "Vantaa",
    "zip": "01610",
    "slug": "vantaa-01610"
  },
  {
    "name": "Vantaa",
    "zip": "01620",
    "slug": "vantaa-01620"
  },
  {
    "name": "Vantaa",
    "zip": "01630",
    "slug": "vantaa-01630"
  },
  {
    "name": "Vantaa",
    "zip": "01640",
    "slug": "vantaa-01640"
  },
  {
    "name": "Vantaa",
    "zip": "01650",
    "slug": "vantaa-01650"
  },
  {
    "name": "Vantaa",
    "zip": "01660",
    "slug": "vantaa-01660"
  },
  {
    "name": "Vantaa",
    "zip": "01670",
    "slug": "vantaa-01670"
  },
  {
    "name": "Vantaa",
    "zip": "01680",
    "slug": "vantaa-01680"
  },
  {
    "name": "Vantaa",
    "zip": "01690",
    "slug": "vantaa-01690"
  },
  {
    "name": "Vantaa",
    "zip": "01700",
    "slug": "vantaa-01700"
  },
  {
    "name": "Vantaa",
    "zip": "01710",
    "slug": "vantaa-01710"
  },
  {
    "name": "Vantaa",
    "zip": "01720",
    "slug": "vantaa-01720"
  },
  {
    "name": "Vantaa",
    "zip": "01730",
    "slug": "vantaa-01730"
  },
  {
    "name": "Vantaa",
    "zip": "01740",
    "slug": "vantaa-01740"
  },
  {
    "name": "Vantaa",
    "zip": "01750",
    "slug": "vantaa-01750"
  },
  {
    "name": "Vantaa",
    "zip": "01760",
    "slug": "vantaa-01760"
  },
  {
    "name": "Vantaa",
    "zip": "01770",
    "slug": "vantaa-01770"
  },
  {
    "name": "Nurmijärvi",
    "zip": "01800",
    "slug": "nurmijarvi-01800"
  },
  {
    "name": "Nurmijärvi",
    "zip": "01900",
    "slug": "nurmijarvi-01900"
  },
  {
    "name": "Espoo",
    "zip": "02100",
    "slug": "espoo-02100"
  },
  {
    "name": "Espoo",
    "zip": "02110",
    "slug": "espoo-02110"
  },
  {
    "name": "Espoo",
    "zip": "02120",
    "slug": "espoo-02120"
  },
  {
    "name": "Espoo",
    "zip": "02130",
    "slug": "espoo-02130"
  },
  {
    "name": "Espoo",
    "zip": "02140",
    "slug": "espoo-02140"
  },
  {
    "name": "Espoo",
    "zip": "02150",
    "slug": "espoo-02150"
  },
  {
    "name": "Espoo",
    "zip": "02160",
    "slug": "espoo-02160"
  },
  {
    "name": "Espoo",
    "zip": "02170",
    "slug": "espoo-02170"
  },
  {
    "name": "Espoo",
    "zip": "02180",
    "slug": "espoo-02180"
  },
  {
    "name": "Espoo",
    "zip": "02200",
    "slug": "espoo-02200"
  },
  {
    "name": "Espoo",
    "zip": "02210",
    "slug": "espoo-02210"
  },
  {
    "name": "Espoo",
    "zip": "02230",
    "slug": "espoo-02230"
  },
  {
    "name": "Espoo",
    "zip": "02240",
    "slug": "espoo-02240"
  },
  {
    "name": "Espoo",
    "zip": "02250",
    "slug": "espoo-02250"
  },
  {
    "name": "Espoo",
    "zip": "02260",
    "slug": "espoo-02260"
  },
  {
    "name": "Espoo",
    "zip": "02270",
    "slug": "espoo-02270"
  },
  {
    "name": "Espoo",
    "zip": "02280",
    "slug": "espoo-02280"
  },
  {
    "name": "Espoo",
    "zip": "02290",
    "slug": "espoo-02290"
  },
  {
    "name": "Espoo",
    "zip": "02300",
    "slug": "espoo-02300"
  },
  {
    "name": "Espoo",
    "zip": "02320",
    "slug": "espoo-02320"
  },
  {
    "name": "Espoo",
    "zip": "02330",
    "slug": "espoo-02330"
  },
  {
    "name": "Espoo",
    "zip": "02340",
    "slug": "espoo-02340"
  },
  {
    "name": "Espoo",
    "zip": "02360",
    "slug": "espoo-02360"
  },
  {
    "name": "Espoo",
    "zip": "02380",
    "slug": "espoo-02380"
  },
  {
    "name": "Kirkkonummi",
    "zip": "02400",
    "slug": "kirkkonummi-02400"
  },
  {
    "name": "Kirkkonummi",
    "zip": "02430",
    "slug": "kirkkonummi-02430"
  },
  {
    "name": "Kirkkonummi",
    "zip": "02440",
    "slug": "kirkkonummi-02440"
  },
  {
    "name": "Kirkkonummi",
    "zip": "02460",
    "slug": "kirkkonummi-02460"
  },
  {
    "name": "Siuntio",
    "zip": "02570",
    "slug": "siuntio-02570"
  },
  {
    "name": "Siuntio",
    "zip": "02580",
    "slug": "siuntio-02580"
  },
  {
    "name": "Espoo",
    "zip": "02600",
    "slug": "espoo-02600"
  },
  {
    "name": "Espoo",
    "zip": "02610",
    "slug": "espoo-02610"
  },
  {
    "name": "Espoo",
    "zip": "02620",
    "slug": "espoo-02620"
  },
  {
    "name": "Espoo",
    "zip": "02630",
    "slug": "espoo-02630"
  },
  {
    "name": "Espoo",
    "zip": "02650",
    "slug": "espoo-02650"
  },
  {
    "name": "Espoo",
    "zip": "02660",
    "slug": "espoo-02660"
  },
  {
    "name": "Espoo",
    "zip": "02680",
    "slug": "espoo-02680"
  },
  {
    "name": "Espoo",
    "zip": "02700",
    "slug": "espoo-02700"
  },
  {
    "name": "Kauniainen",
    "zip": "02700",
    "slug": "kauniainen-02700"
  },
  {
    "name": "Espoo",
    "zip": "02710",
    "slug": "espoo-02710"
  },
  {
    "name": "Espoo",
    "zip": "02720",
    "slug": "espoo-02720"
  },
  {
    "name": "Espoo",
    "zip": "02730",
    "slug": "espoo-02730"
  },
  {
    "name": "Espoo",
    "zip": "02740",
    "slug": "espoo-02740"
  },
  {
    "name": "Espoo",
    "zip": "02750",
    "slug": "espoo-02750"
  },
  {
    "name": "Espoo",
    "zip": "02760",
    "slug": "espoo-02760"
  },
  {
    "name": "Espoo",
    "zip": "02770",
    "slug": "espoo-02770"
  },
  {
    "name": "Espoo",
    "zip": "02780",
    "slug": "espoo-02780"
  },
  {
    "name": "Vihti",
    "zip": "03100",
    "slug": "vihti-03100"
  },
  {
    "name": "Vihti",
    "zip": "03220",
    "slug": "vihti-03220"
  },
  {
    "name": "Vihti",
    "zip": "03250",
    "slug": "vihti-03250"
  },
  {
    "name": "Vihti",
    "zip": "03300",
    "slug": "vihti-03300"
  },
  {
    "name": "Vihti",
    "zip": "03320",
    "slug": "vihti-03320"
  },
  {
    "name": "Vihti",
    "zip": "03400",
    "slug": "vihti-03400"
  },
  {
    "name": "Karkkila",
    "zip": "03600",
    "slug": "karkkila-03600"
  },
  {
    "name": "Sipoo",
    "zip": "04130",
    "slug": "sipoo-04130"
  },
  {
    "name": "Kerava",
    "zip": "04200",
    "slug": "kerava-04200"
  },
  {
    "name": "Kerava",
    "zip": "04220",
    "slug": "kerava-04220"
  },
  {
    "name": "Kerava",
    "zip": "04230",
    "slug": "kerava-04230"
  },
  {
    "name": "Kerava",
    "zip": "04250",
    "slug": "kerava-04250"
  },
  {
    "name": "Kerava",
    "zip": "04260",
    "slug": "kerava-04260"
  },
  {
    "name": "Tuusula",
    "zip": "04300",
    "slug": "tuusula-04300"
  },
  {
    "name": "Tuusula",
    "zip": "04310",
    "slug": "tuusula-04310"
  },
  {
    "name": "Tuusula",
    "zip": "04320",
    "slug": "tuusula-04320"
  },
  {
    "name": "Tuusula",
    "zip": "04330",
    "slug": "tuusula-04330"
  },
  {
    "name": "Tuusula",
    "zip": "04340",
    "slug": "tuusula-04340"
  },
  {
    "name": "Tuusula",
    "zip": "04350",
    "slug": "tuusula-04350"
  },
  {
    "name": "Tuusula",
    "zip": "04360",
    "slug": "tuusula-04360"
  },
  {
    "name": "Tuusula",
    "zip": "04370",
    "slug": "tuusula-04370"
  },
  {
    "name": "Tuusula",
    "zip": "04380",
    "slug": "tuusula-04380"
  },
  {
    "name": "Tuusula",
    "zip": "04390",
    "slug": "tuusula-04390"
  },
  {
    "name": "Järvenpää",
    "zip": "04400",
    "slug": "jarvenpaa-04400"
  },
  {
    "name": "Järvenpää",
    "zip": "04410",
    "slug": "jarvenpaa-04410"
  },
  {
    "name": "Järvenpää",
    "zip": "04420",
    "slug": "jarvenpaa-04420"
  },
  {
    "name": "Järvenpää",
    "zip": "04430",
    "slug": "jarvenpaa-04430"
  },
  {
    "name": "Järvenpää",
    "zip": "04440",
    "slug": "jarvenpaa-04440"
  },
  {
    "name": "Mäntsälä",
    "zip": "04600",
    "slug": "mantsala-04600"
  },
  {
    "name": "Mäntsälä",
    "zip": "04620",
    "slug": "mantsala-04620"
  },
  {
    "name": "Mäntsälä",
    "zip": "04630",
    "slug": "mantsala-04630"
  },
  {
    "name": "Mäntsälä",
    "zip": "04660",
    "slug": "mantsala-04660"
  },
  {
    "name": "Mäntsälä",
    "zip": "04680",
    "slug": "mantsala-04680"
  },
  {
    "name": "Nurmijärvi",
    "zip": "05100",
    "slug": "nurmijarvi-05100"
  },
  {
    "name": "Nurmijärvi",
    "zip": "05200",
    "slug": "nurmijarvi-05200"
  },
  {
    "name": "Nurmijärvi",
    "zip": "05250",
    "slug": "nurmijarvi-05250"
  },
  {
    "name": "Hyvinkää",
    "zip": "05400",
    "slug": "hyvinkaa-05400"
  },
  {
    "name": "Hyvinkää",
    "zip": "05430",
    "slug": "hyvinkaa-05430"
  },
  {
    "name": "Hyvinkää",
    "zip": "05450",
    "slug": "hyvinkaa-05450"
  },
  {
    "name": "Hyvinkää",
    "zip": "05460",
    "slug": "hyvinkaa-05460"
  },
  {
    "name": "Hyvinkää",
    "zip": "05470",
    "slug": "hyvinkaa-05470"
  },
  {
    "name": "Hyvinkää",
    "zip": "05510",
    "slug": "hyvinkaa-05510"
  },
  {
    "name": "Hyvinkää",
    "zip": "05520",
    "slug": "hyvinkaa-05520"
  },
  {
    "name": "Hyvinkää",
    "zip": "05620",
    "slug": "hyvinkaa-05620"
  },
  {
    "name": "Hyvinkää",
    "zip": "05720",
    "slug": "hyvinkaa-05720"
  },
  {
    "name": "Hyvinkää",
    "zip": "05800",
    "slug": "hyvinkaa-05800"
  },
  {
    "name": "Hyvinkää",
    "zip": "05810",
    "slug": "hyvinkaa-05810"
  },
  {
    "name": "Hyvinkää",
    "zip": "05820",
    "slug": "hyvinkaa-05820"
  },
  {
    "name": "Hyvinkää",
    "zip": "05830",
    "slug": "hyvinkaa-05830"
  },
  {
    "name": "Hyvinkää",
    "zip": "05840",
    "slug": "hyvinkaa-05840"
  },
  {
    "name": "Hyvinkää",
    "zip": "05850",
    "slug": "hyvinkaa-05850"
  },
  {
    "name": "Hyvinkää",
    "zip": "05860",
    "slug": "hyvinkaa-05860"
  },
  {
    "name": "Hyvinkää",
    "zip": "05880",
    "slug": "hyvinkaa-05880"
  },
  {
    "name": "Hyvinkää",
    "zip": "05900",
    "slug": "hyvinkaa-05900"
  },
  {
    "name": "Porvoo",
    "zip": "06100",
    "slug": "porvoo-06100"
  },
  {
    "name": "Porvoo",
    "zip": "06150",
    "slug": "porvoo-06150"
  },
  {
    "name": "Porvoo",
    "zip": "06200",
    "slug": "porvoo-06200"
  },
  {
    "name": "Porvoo",
    "zip": "06400",
    "slug": "porvoo-06400"
  },
  {
    "name": "Porvoo",
    "zip": "06450",
    "slug": "porvoo-06450"
  },
  {
    "name": "Porvoo",
    "zip": "06500",
    "slug": "porvoo-06500"
  },
  {
    "name": "Loviisa",
    "zip": "07900",
    "slug": "loviisa-07900"
  },
  {
    "name": "Loviisa",
    "zip": "07910",
    "slug": "loviisa-07910"
  },
  {
    "name": "Loviisa",
    "zip": "07920",
    "slug": "loviisa-07920"
  },
  {
    "name": "Loviisa",
    "zip": "07930",
    "slug": "loviisa-07930"
  },
  {
    "name": "Loviisa",
    "zip": "07945",
    "slug": "loviisa-07945"
  },
  {
    "name": "Loviisa",
    "zip": "07955",
    "slug": "loviisa-07955"
  },
  {
    "name": "Loviisa",
    "zip": "07970",
    "slug": "loviisa-07970"
  },
  {
    "name": "Lohja",
    "zip": "08100",
    "slug": "lohja-08100"
  },
  {
    "name": "Lohja",
    "zip": "08150",
    "slug": "lohja-08150"
  },
  {
    "name": "Lohja",
    "zip": "08200",
    "slug": "lohja-08200"
  },
  {
    "name": "Lohja",
    "zip": "08350",
    "slug": "lohja-08350"
  },
  {
    "name": "Lohja",
    "zip": "08450",
    "slug": "lohja-08450"
  },
  {
    "name": "Lohja",
    "zip": "08500",
    "slug": "lohja-08500"
  },
  {
    "name": "Lohja",
    "zip": "08680",
    "slug": "lohja-08680"
  },
  {
    "name": "Lohja",
    "zip": "08700",
    "slug": "lohja-08700"
  },
  {
    "name": "Inkoo",
    "zip": "10210",
    "slug": "inkoo-10210"
  },
  {
    "name": "Raasepori",
    "zip": "10300",
    "slug": "raasepori-10300"
  },
  {
    "name": "Raasepori",
    "zip": "10320",
    "slug": "raasepori-10320"
  },
  {
    "name": "Raasepori",
    "zip": "10350",
    "slug": "raasepori-10350"
  },
  {
    "name": "Raasepori",
    "zip": "10360",
    "slug": "raasepori-10360"
  },
  {
    "name": "Raasepori",
    "zip": "10380",
    "slug": "raasepori-10380"
  },
  {
    "name": "Raasepori",
    "zip": "10520",
    "slug": "raasepori-10520"
  },
  {
    "name": "Raasepori",
    "zip": "10600",
    "slug": "raasepori-10600"
  },
  {
    "name": "Raasepori",
    "zip": "10620",
    "slug": "raasepori-10620"
  },
  {
    "name": "Hanko",
    "zip": "10900",
    "slug": "hanko-10900"
  },
  {
    "name": "Hanko",
    "zip": "10940",
    "slug": "hanko-10940"
  },
  {
    "name": "Hanko",
    "zip": "10960",
    "slug": "hanko-10960"
  },
  {
    "name": "Riihimäki",
    "zip": "11100",
    "slug": "riihimaki-11100"
  },
  {
    "name": "Riihimäki",
    "zip": "11120",
    "slug": "riihimaki-11120"
  },
  {
    "name": "Riihimäki",
    "zip": "11130",
    "slug": "riihimaki-11130"
  },
  {
    "name": "Riihimäki",
    "zip": "11160",
    "slug": "riihimaki-11160"
  },
  {
    "name": "Riihimäki",
    "zip": "11310",
    "slug": "riihimaki-11310"
  },
  {
    "name": "Riihimäki",
    "zip": "11710",
    "slug": "riihimaki-11710"
  },
  {
    "name": "Hausjärvi",
    "zip": "12100",
    "slug": "hausjarvi-12100"
  },
  {
    "name": "Hausjärvi",
    "zip": "12130",
    "slug": "hausjarvi-12130"
  },
  {
    "name": "Loppi",
    "zip": "12700",
    "slug": "loppi-12700"
  },
  {
    "name": "Loppi",
    "zip": "12750",
    "slug": "loppi-12750"
  },
  {
    "name": "Hämeenlinna",
    "zip": "13100",
    "slug": "hameenlinna-13100"
  },
  {
    "name": "Hämeenlinna",
    "zip": "13110",
    "slug": "hameenlinna-13110"
  },
  {
    "name": "Hämeenlinna",
    "zip": "13130",
    "slug": "hameenlinna-13130"
  },
  {
    "name": "Hämeenlinna",
    "zip": "13200",
    "slug": "hameenlinna-13200"
  },
  {
    "name": "Hämeenlinna",
    "zip": "13210",
    "slug": "hameenlinna-13210"
  },
  {
    "name": "Hämeenlinna",
    "zip": "13220",
    "slug": "hameenlinna-13220"
  },
  {
    "name": "Hämeenlinna",
    "zip": "13250",
    "slug": "hameenlinna-13250"
  },
  {
    "name": "Hämeenlinna",
    "zip": "13270",
    "slug": "hameenlinna-13270"
  },
  {
    "name": "Hämeenlinna",
    "zip": "13300",
    "slug": "hameenlinna-13300"
  },
  {
    "name": "Hämeenlinna",
    "zip": "13430",
    "slug": "hameenlinna-13430"
  },
  {
    "name": "Hämeenlinna",
    "zip": "13500",
    "slug": "hameenlinna-13500"
  },
  {
    "name": "Hämeenlinna",
    "zip": "13720",
    "slug": "hameenlinna-13720"
  },
  {
    "name": "Janakkala",
    "zip": "14200",
    "slug": "janakkala-14200"
  },
  {
    "name": "Janakkala",
    "zip": "14240",
    "slug": "janakkala-14240"
  },
  {
    "name": "Janakkala",
    "zip": "14260",
    "slug": "janakkala-14260"
  },
  {
    "name": "Janakkala",
    "zip": "14270",
    "slug": "janakkala-14270"
  },
  {
    "name": "Janakkala",
    "zip": "14300",
    "slug": "janakkala-14300"
  },
  {
    "name": "Janakkala",
    "zip": "14320",
    "slug": "janakkala-14320"
  },
  {
    "name": "Janakkala",
    "zip": "14350",
    "slug": "janakkala-14350"
  },
  {
    "name": "Janakkala",
    "zip": "14370",
    "slug": "janakkala-14370"
  },
  {
    "name": "Janakkala",
    "zip": "14500",
    "slug": "janakkala-14500"
  },
  {
    "name": "Janakkala",
    "zip": "14530",
    "slug": "janakkala-14530"
  },
  {
    "name": "Janakkala",
    "zip": "14580",
    "slug": "janakkala-14580"
  },
  {
    "name": "Janakkala",
    "zip": "14600",
    "slug": "janakkala-14600"
  },
  {
    "name": "Janakkala",
    "zip": "14610",
    "slug": "janakkala-14610"
  },
  {
    "name": "Janakkala",
    "zip": "14620",
    "slug": "janakkala-14620"
  },
  {
    "name": "Janakkala",
    "zip": "14680",
    "slug": "janakkala-14680"
  },
  {
    "name": "Janakkala",
    "zip": "14690",
    "slug": "janakkala-14690"
  },
  {
    "name": "Janakkala",
    "zip": "14700",
    "slug": "janakkala-14700"
  },
  {
    "name": "Lahti",
    "zip": "15100",
    "slug": "lahti-15100"
  },
  {
    "name": "Lahti",
    "zip": "15110",
    "slug": "lahti-15110"
  },
  {
    "name": "Hollola",
    "zip": "15110",
    "slug": "hollola-15110"
  },
  {
    "name": "Lahti",
    "zip": "15140",
    "slug": "lahti-15140"
  },
  {
    "name": "Lahti",
    "zip": "15150",
    "slug": "lahti-15150"
  },
  {
    "name": "Lahti",
    "zip": "15160",
    "slug": "lahti-15160"
  },
  {
    "name": "Lahti",
    "zip": "15170",
    "slug": "lahti-15170"
  },
  {
    "name": "Lahti",
    "zip": "15200",
    "slug": "lahti-15200"
  },
  {
    "name": "Lahti",
    "zip": "15210",
    "slug": "lahti-15210"
  },
  {
    "name": "Lahti",
    "zip": "15230",
    "slug": "lahti-15230"
  },
  {
    "name": "Lahti",
    "zip": "15240",
    "slug": "lahti-15240"
  },
  {
    "name": "Lahti",
    "zip": "15250",
    "slug": "lahti-15250"
  },
  {
    "name": "Lahti",
    "zip": "15260",
    "slug": "lahti-15260"
  },
  {
    "name": "Lahti",
    "zip": "15270",
    "slug": "lahti-15270"
  },
  {
    "name": "Hollola",
    "zip": "15270",
    "slug": "hollola-15270"
  },
  {
    "name": "Lahti",
    "zip": "15300",
    "slug": "lahti-15300"
  },
  {
    "name": "Lahti",
    "zip": "15320",
    "slug": "lahti-15320"
  },
  {
    "name": "Lahti",
    "zip": "15340",
    "slug": "lahti-15340"
  },
  {
    "name": "Lahti",
    "zip": "15500",
    "slug": "lahti-15500"
  },
  {
    "name": "Lahti",
    "zip": "15520",
    "slug": "lahti-15520"
  },
  {
    "name": "Lahti",
    "zip": "15540",
    "slug": "lahti-15540"
  },
  {
    "name": "Nastola",
    "zip": "15540",
    "slug": "nastola-15540"
  },
  {
    "name": "Lahti",
    "zip": "15550",
    "slug": "lahti-15550"
  },
  {
    "name": "Lahti",
    "zip": "15560",
    "slug": "lahti-15560"
  },
  {
    "name": "Nastola",
    "zip": "15560",
    "slug": "nastola-15560"
  },
  {
    "name": "Lahti",
    "zip": "15580",
    "slug": "lahti-15580"
  },
  {
    "name": "Lahti",
    "zip": "15610",
    "slug": "lahti-15610"
  },
  {
    "name": "Lahti",
    "zip": "15700",
    "slug": "lahti-15700"
  },
  {
    "name": "Lahti",
    "zip": "15800",
    "slug": "lahti-15800"
  },
  {
    "name": "Lahti",
    "zip": "15810",
    "slug": "lahti-15810"
  },
  {
    "name": "Lahti",
    "zip": "15820",
    "slug": "lahti-15820"
  },
  {
    "name": "Lahti",
    "zip": "15830",
    "slug": "lahti-15830"
  },
  {
    "name": "Lahti",
    "zip": "15840",
    "slug": "lahti-15840"
  },
  {
    "name": "Lahti",
    "zip": "15850",
    "slug": "lahti-15850"
  },
  {
    "name": "Lahti",
    "zip": "15860",
    "slug": "lahti-15860"
  },
  {
    "name": "Lahti",
    "zip": "15870",
    "slug": "lahti-15870"
  },
  {
    "name": "Hollola",
    "zip": "15870",
    "slug": "hollola-15870"
  },
  {
    "name": "Lahti",
    "zip": "15880",
    "slug": "lahti-15880"
  },
  {
    "name": "Hollola",
    "zip": "15880",
    "slug": "hollola-15880"
  },
  {
    "name": "Orimattila",
    "zip": "16200",
    "slug": "orimattila-16200"
  },
  {
    "name": "Orimattila",
    "zip": "16230",
    "slug": "orimattila-16230"
  },
  {
    "name": "Orimattila",
    "zip": "16270",
    "slug": "orimattila-16270"
  },
  {
    "name": "Orimattila",
    "zip": "16300",
    "slug": "orimattila-16300"
  },
  {
    "name": "Orimattila",
    "zip": "16310",
    "slug": "orimattila-16310"
  },
  {
    "name": "Orimattila",
    "zip": "16320",
    "slug": "orimattila-16320"
  },
  {
    "name": "Orimattila",
    "zip": "16330",
    "slug": "orimattila-16330"
  },
  {
    "name": "Orimattila",
    "zip": "16350",
    "slug": "orimattila-16350"
  },
  {
    "name": "Orimattila",
    "zip": "16390",
    "slug": "orimattila-16390"
  },
  {
    "name": "Orimattila",
    "zip": "16450",
    "slug": "orimattila-16450"
  },
  {
    "name": "Orimattila",
    "zip": "16500",
    "slug": "orimattila-16500"
  },
  {
    "name": "Orimattila",
    "zip": "16510",
    "slug": "orimattila-16510"
  },
  {
    "name": "Orimattila",
    "zip": "16600",
    "slug": "orimattila-16600"
  },
  {
    "name": "Kärkölä",
    "zip": "16600",
    "slug": "karkola-16600"
  },
  {
    "name": "Orimattila",
    "zip": "16610",
    "slug": "orimattila-16610"
  },
  {
    "name": "Orimattila",
    "zip": "16620",
    "slug": "orimattila-16620"
  },
  {
    "name": "Orimattila",
    "zip": "16630",
    "slug": "orimattila-16630"
  },
  {
    "name": "Asikkala",
    "zip": "17200",
    "slug": "asikkala-17200"
  },
  {
    "name": "Asikkala",
    "zip": "17240",
    "slug": "asikkala-17240"
  },
  {
    "name": "Padasjoki",
    "zip": "17500",
    "slug": "padasjoki-17500"
  },
  {
    "name": "Kuhmoinen",
    "zip": "17800",
    "slug": "kuhmoinen-17800"
  },
  {
    "name": "Heinola",
    "zip": "18100",
    "slug": "heinola-18100"
  },
  {
    "name": "Heinola",
    "zip": "18120",
    "slug": "heinola-18120"
  },
  {
    "name": "Heinola",
    "zip": "18130",
    "slug": "heinola-18130"
  },
  {
    "name": "Heinola",
    "zip": "18150",
    "slug": "heinola-18150"
  },
  {
    "name": "Heinola",
    "zip": "18200",
    "slug": "heinola-18200"
  },
  {
    "name": "Heinola",
    "zip": "18300",
    "slug": "heinola-18300"
  },
  {
    "name": "Pertunmaa",
    "zip": "19430",
    "slug": "pertunmaa-19430"
  },
  {
    "name": "Hartola",
    "zip": "19600",
    "slug": "hartola-19600"
  },
  {
    "name": "Sysmä",
    "zip": "19700",
    "slug": "sysma-19700"
  },
  {
    "name": "Sysmä",
    "zip": "19730",
    "slug": "sysma-19730"
  },
  {
    "name": "Turku",
    "zip": "20100",
    "slug": "turku-20100"
  },
  {
    "name": "Turku",
    "zip": "20110",
    "slug": "turku-20110"
  },
  {
    "name": "Turku",
    "zip": "20200",
    "slug": "turku-20200"
  },
  {
    "name": "Turku",
    "zip": "20210",
    "slug": "turku-20210"
  },
  {
    "name": "Turku",
    "zip": "20240",
    "slug": "turku-20240"
  },
  {
    "name": "Turku",
    "zip": "20250",
    "slug": "turku-20250"
  },
  {
    "name": "Turku",
    "zip": "20260",
    "slug": "turku-20260"
  },
  {
    "name": "Turku",
    "zip": "20300",
    "slug": "turku-20300"
  },
  {
    "name": "Turku",
    "zip": "20320",
    "slug": "turku-20320"
  },
  {
    "name": "Turku",
    "zip": "20360",
    "slug": "turku-20360"
  },
  {
    "name": "Turku",
    "zip": "20380",
    "slug": "turku-20380"
  },
  {
    "name": "Turku",
    "zip": "20400",
    "slug": "turku-20400"
  },
  {
    "name": "Turku",
    "zip": "20460",
    "slug": "turku-20460"
  },
  {
    "name": "Turku",
    "zip": "20500",
    "slug": "turku-20500"
  },
  {
    "name": "Turku",
    "zip": "20520",
    "slug": "turku-20520"
  },
  {
    "name": "Turku",
    "zip": "20540",
    "slug": "turku-20540"
  },
  {
    "name": "Turku",
    "zip": "20610",
    "slug": "turku-20610"
  },
  {
    "name": "Turku",
    "zip": "20660",
    "slug": "turku-20660"
  },
  {
    "name": "Turku",
    "zip": "20700",
    "slug": "turku-20700"
  },
  {
    "name": "Turku",
    "zip": "20720",
    "slug": "turku-20720"
  },
  {
    "name": "Turku",
    "zip": "20730",
    "slug": "turku-20730"
  },
  {
    "name": "Turku",
    "zip": "20740",
    "slug": "turku-20740"
  },
  {
    "name": "Turku",
    "zip": "20750",
    "slug": "turku-20750"
  },
  {
    "name": "Turku",
    "zip": "20760",
    "slug": "turku-20760"
  },
  {
    "name": "Turku",
    "zip": "20780",
    "slug": "turku-20780"
  },
  {
    "name": "Kaarina",
    "zip": "20780",
    "slug": "kaarina-20780"
  },
  {
    "name": "Turku",
    "zip": "20810",
    "slug": "turku-20810"
  },
  {
    "name": "Turku",
    "zip": "20880",
    "slug": "turku-20880"
  },
  {
    "name": "Turku",
    "zip": "20900",
    "slug": "turku-20900"
  },
  {
    "name": "Kaarina",
    "zip": "20960",
    "slug": "kaarina-20960"
  },
  {
    "name": "Naantali",
    "zip": "21100",
    "slug": "naantali-21100"
  },
  {
    "name": "Naantali",
    "zip": "21110",
    "slug": "naantali-21110"
  },
  {
    "name": "Naantali",
    "zip": "21120",
    "slug": "naantali-21120"
  },
  {
    "name": "Naantali",
    "zip": "21130",
    "slug": "naantali-21130"
  },
  {
    "name": "Naantali",
    "zip": "21140",
    "slug": "naantali-21140"
  },
  {
    "name": "Naantali",
    "zip": "21150",
    "slug": "naantali-21150"
  },
  {
    "name": "Raisio",
    "zip": "21200",
    "slug": "raisio-21200"
  },
  {
    "name": "Raisio",
    "zip": "21250",
    "slug": "raisio-21250"
  },
  {
    "name": "Masku",
    "zip": "21250",
    "slug": "masku-21250"
  },
  {
    "name": "Raisio",
    "zip": "21270",
    "slug": "raisio-21270"
  },
  {
    "name": "Nousiainen",
    "zip": "21270",
    "slug": "nousiainen-21270"
  },
  {
    "name": "Raisio",
    "zip": "21280",
    "slug": "raisio-21280"
  },
  {
    "name": "Raisio",
    "zip": "21290",
    "slug": "raisio-21290"
  },
  {
    "name": "Lieto",
    "zip": "21410",
    "slug": "lieto-21410"
  },
  {
    "name": "Lieto",
    "zip": "21420",
    "slug": "lieto-21420"
  },
  {
    "name": "Tarvasjoki",
    "zip": "21450",
    "slug": "tarvasjoki-21450"
  },
  {
    "name": "Marttila",
    "zip": "21490",
    "slug": "marttila-21490"
  },
  {
    "name": "Lieto",
    "zip": "21500",
    "slug": "lieto-21500"
  },
  {
    "name": "Paimio",
    "zip": "21530",
    "slug": "paimio-21530"
  },
  {
    "name": "Paimio",
    "zip": "21540",
    "slug": "paimio-21540"
  },
  {
    "name": "Sauvo",
    "zip": "21570",
    "slug": "sauvo-21570"
  },
  {
    "name": "Parainen",
    "zip": "21600",
    "slug": "parainen-21600"
  },
  {
    "name": "Parainen",
    "zip": "21610",
    "slug": "parainen-21610"
  },
  {
    "name": "Mariehamn",
    "zip": "22100",
    "slug": "mariehamn-22100"
  },
  {
    "name": "Jomala",
    "zip": "22120",
    "slug": "jomala-22120"
  },
  {
    "name": "Jomala",
    "zip": "22130",
    "slug": "jomala-22130"
  },
  {
    "name": "Mariehamn",
    "zip": "22150",
    "slug": "mariehamn-22150"
  },
  {
    "name": "Hammarland",
    "zip": "22240",
    "slug": "hammarland-22240"
  },
  {
    "name": "Eckerö",
    "zip": "22270",
    "slug": "eckero-22270"
  },
  {
    "name": "Saltvik",
    "zip": "22320",
    "slug": "saltvik-22320"
  },
  {
    "name": "Geta",
    "zip": "22340",
    "slug": "geta-22340"
  },
  {
    "name": "Finström",
    "zip": "22410",
    "slug": "finstrom-22410"
  },
  {
    "name": "Sund",
    "zip": "22520",
    "slug": "sund-22520"
  },
  {
    "name": "Vårdö",
    "zip": "22550",
    "slug": "vardo-22550"
  },
  {
    "name": "Lemland",
    "zip": "22610",
    "slug": "lemland-22610"
  },
  {
    "name": "Lumparland",
    "zip": "22630",
    "slug": "lumparland-22630"
  },
  {
    "name": "Föglö",
    "zip": "22710",
    "slug": "foglo-22710"
  },
  {
    "name": "Sottunga",
    "zip": "22720",
    "slug": "sottunga-22720"
  },
  {
    "name": "Kökar",
    "zip": "22730",
    "slug": "kokar-22730"
  },
  {
    "name": "Kumlinge",
    "zip": "22820",
    "slug": "kumlinge-22820"
  },
  {
    "name": "Brändö",
    "zip": "22920",
    "slug": "brando-22920"
  },
  {
    "name": "Mynämäki",
    "zip": "23100",
    "slug": "mynamaki-23100"
  },
  {
    "name": "Mynämäki",
    "zip": "23120",
    "slug": "mynamaki-23120"
  },
  {
    "name": "Vehmaa",
    "zip": "23200",
    "slug": "vehmaa-23200"
  },
  {
    "name": "Taivassalo",
    "zip": "23310",
    "slug": "taivassalo-23310"
  },
  {
    "name": "Kustavi",
    "zip": "23360",
    "slug": "kustavi-23360"
  },
  {
    "name": "Uusikaupunki",
    "zip": "23500",
    "slug": "uusikaupunki-23500"
  },
  {
    "name": "Uusikaupunki",
    "zip": "23600",
    "slug": "uusikaupunki-23600"
  },
  {
    "name": "Uusikaupunki",
    "zip": "23800",
    "slug": "uusikaupunki-23800"
  },
  {
    "name": "Laitila",
    "zip": "23800",
    "slug": "laitila-23800"
  },
  {
    "name": "Laitila",
    "zip": "23850",
    "slug": "laitila-23850"
  },
  {
    "name": "Pyhäranta",
    "zip": "23950",
    "slug": "pyharanta-23950"
  },
  {
    "name": "Salo",
    "zip": "24100",
    "slug": "salo-24100"
  },
  {
    "name": "Salo",
    "zip": "24130",
    "slug": "salo-24130"
  },
  {
    "name": "Salo",
    "zip": "24240",
    "slug": "salo-24240"
  },
  {
    "name": "Salo",
    "zip": "24260",
    "slug": "salo-24260"
  },
  {
    "name": "Salo",
    "zip": "24280",
    "slug": "salo-24280"
  },
  {
    "name": "Salo",
    "zip": "24800",
    "slug": "salo-24800"
  },
  {
    "name": "Salo",
    "zip": "24910",
    "slug": "salo-24910"
  },
  {
    "name": "Kemiönsaari",
    "zip": "25700",
    "slug": "kemionsaari-25700"
  },
  {
    "name": "Kemiönsaari",
    "zip": "25860",
    "slug": "kemionsaari-25860"
  },
  {
    "name": "Rauma",
    "zip": "26100",
    "slug": "rauma-26100"
  },
  {
    "name": "Rauma",
    "zip": "26200",
    "slug": "rauma-26200"
  },
  {
    "name": "Rauma",
    "zip": "26410",
    "slug": "rauma-26410"
  },
  {
    "name": "Rauma",
    "zip": "26510",
    "slug": "rauma-26510"
  },
  {
    "name": "Rauma",
    "zip": "26660",
    "slug": "rauma-26660"
  },
  {
    "name": "Rauma",
    "zip": "26820",
    "slug": "rauma-26820"
  },
  {
    "name": "Rauma",
    "zip": "26840",
    "slug": "rauma-26840"
  },
  {
    "name": "Rauma",
    "zip": "26910",
    "slug": "rauma-26910"
  },
  {
    "name": "Rauma",
    "zip": "26950",
    "slug": "rauma-26950"
  },
  {
    "name": "Eurajoki",
    "zip": "27100",
    "slug": "eurajoki-27100"
  },
  {
    "name": "Eurajoki",
    "zip": "27160",
    "slug": "eurajoki-27160"
  },
  {
    "name": "Eura",
    "zip": "27510",
    "slug": "eura-27510"
  },
  {
    "name": "Eura",
    "zip": "27600",
    "slug": "eura-27600"
  },
  {
    "name": "Köyliö",
    "zip": "27710",
    "slug": "koylio-27710"
  },
  {
    "name": "Säkylä",
    "zip": "27800",
    "slug": "sakyla-27800"
  },
  {
    "name": "Pori",
    "zip": "28100",
    "slug": "pori-28100"
  },
  {
    "name": "Pori",
    "zip": "28120",
    "slug": "pori-28120"
  },
  {
    "name": "Pori",
    "zip": "28130",
    "slug": "pori-28130"
  },
  {
    "name": "Pori",
    "zip": "28190",
    "slug": "pori-28190"
  },
  {
    "name": "Pori",
    "zip": "28200",
    "slug": "pori-28200"
  },
  {
    "name": "Pori",
    "zip": "28210",
    "slug": "pori-28210"
  },
  {
    "name": "Pori",
    "zip": "28220",
    "slug": "pori-28220"
  },
  {
    "name": "Pori",
    "zip": "28240",
    "slug": "pori-28240"
  },
  {
    "name": "Pori",
    "zip": "28260",
    "slug": "pori-28260"
  },
  {
    "name": "Pori",
    "zip": "28300",
    "slug": "pori-28300"
  },
  {
    "name": "Pori",
    "zip": "28330",
    "slug": "pori-28330"
  },
  {
    "name": "Pori",
    "zip": "28360",
    "slug": "pori-28360"
  },
  {
    "name": "Pori",
    "zip": "28370",
    "slug": "pori-28370"
  },
  {
    "name": "Pori",
    "zip": "28400",
    "slug": "pori-28400"
  },
  {
    "name": "Ulvila",
    "zip": "28400",
    "slug": "ulvila-28400"
  },
  {
    "name": "Pori",
    "zip": "28430",
    "slug": "pori-28430"
  },
  {
    "name": "Pori",
    "zip": "28450",
    "slug": "pori-28450"
  },
  {
    "name": "Ulvila",
    "zip": "28450",
    "slug": "ulvila-28450"
  },
  {
    "name": "Pori",
    "zip": "28500",
    "slug": "pori-28500"
  },
  {
    "name": "Pori",
    "zip": "28540",
    "slug": "pori-28540"
  },
  {
    "name": "Pori",
    "zip": "28580",
    "slug": "pori-28580"
  },
  {
    "name": "Pori",
    "zip": "28600",
    "slug": "pori-28600"
  },
  {
    "name": "Pori",
    "zip": "28610",
    "slug": "pori-28610"
  },
  {
    "name": "Pori",
    "zip": "28660",
    "slug": "pori-28660"
  },
  {
    "name": "Pori",
    "zip": "28760",
    "slug": "pori-28760"
  },
  {
    "name": "Pori",
    "zip": "28800",
    "slug": "pori-28800"
  },
  {
    "name": "Pori",
    "zip": "28840",
    "slug": "pori-28840"
  },
  {
    "name": "Pori",
    "zip": "28880",
    "slug": "pori-28880"
  },
  {
    "name": "Pori",
    "zip": "28900",
    "slug": "pori-28900"
  },
  {
    "name": "Luvia",
    "zip": "29100",
    "slug": "luvia-29100"
  },
  {
    "name": "Harjavalta",
    "zip": "29200",
    "slug": "harjavalta-29200"
  },
  {
    "name": "Ulvila",
    "zip": "29250",
    "slug": "ulvila-29250"
  },
  {
    "name": "Nakkila",
    "zip": "29250",
    "slug": "nakkila-29250"
  },
  {
    "name": "Ulvila",
    "zip": "29310",
    "slug": "ulvila-29310"
  },
  {
    "name": "Ulvila",
    "zip": "29330",
    "slug": "ulvila-29330"
  },
  {
    "name": "Pomarkku",
    "zip": "29630",
    "slug": "pomarkku-29630"
  },
  {
    "name": "Siikainen",
    "zip": "29810",
    "slug": "siikainen-29810"
  },
  {
    "name": "Merikarvia",
    "zip": "29900",
    "slug": "merikarvia-29900"
  },
  {
    "name": "Forssa",
    "zip": "30100",
    "slug": "forssa-30100"
  },
  {
    "name": "Forssa",
    "zip": "30300",
    "slug": "forssa-30300"
  },
  {
    "name": "Forssa",
    "zip": "30420",
    "slug": "forssa-30420"
  },
  {
    "name": "Tammela",
    "zip": "31300",
    "slug": "tammela-31300"
  },
  {
    "name": "Tammela",
    "zip": "31340",
    "slug": "tammela-31340"
  },
  {
    "name": "Somero",
    "zip": "31400",
    "slug": "somero-31400"
  },
  {
    "name": "Somero",
    "zip": "31470",
    "slug": "somero-31470"
  },
  {
    "name": "Koski Tl",
    "zip": "31500",
    "slug": "koski-tl-31500"
  },
  {
    "name": "Jokioinen",
    "zip": "31600",
    "slug": "jokioinen-31600"
  },
  {
    "name": "Humppila",
    "zip": "31640",
    "slug": "humppila-31640"
  },
  {
    "name": "Urjala",
    "zip": "31700",
    "slug": "urjala-31700"
  },
  {
    "name": "Punkalaidun",
    "zip": "31900",
    "slug": "punkalaidun-31900"
  },
  {
    "name": "Ypäjä",
    "zip": "32100",
    "slug": "ypaja-32100"
  },
  {
    "name": "Oripää",
    "zip": "32500",
    "slug": "oripaa-32500"
  },
  {
    "name": "Vampula",
    "zip": "32610",
    "slug": "vampula-32610"
  },
  {
    "name": "Huittinen",
    "zip": "32700",
    "slug": "huittinen-32700"
  },
  {
    "name": "Huittinen",
    "zip": "32730",
    "slug": "huittinen-32730"
  },
  {
    "name": "Äetsä",
    "zip": "32740",
    "slug": "aetsa-32740"
  },
  {
    "name": "Kokemäki",
    "zip": "32800",
    "slug": "kokemaki-32800"
  },
  {
    "name": "Kokemäki",
    "zip": "32830",
    "slug": "kokemaki-32830"
  },
  {
    "name": "Tampere",
    "zip": "33100",
    "slug": "tampere-33100"
  },
  {
    "name": "Tampere",
    "zip": "33180",
    "slug": "tampere-33180"
  },
  {
    "name": "Tampere",
    "zip": "33200",
    "slug": "tampere-33200"
  },
  {
    "name": "Tampere",
    "zip": "33210",
    "slug": "tampere-33210"
  },
  {
    "name": "Tampere",
    "zip": "33230",
    "slug": "tampere-33230"
  },
  {
    "name": "Tampere",
    "zip": "33240",
    "slug": "tampere-33240"
  },
  {
    "name": "Tampere",
    "zip": "33250",
    "slug": "tampere-33250"
  },
  {
    "name": "Tampere",
    "zip": "33270",
    "slug": "tampere-33270"
  },
  {
    "name": "Tampere",
    "zip": "33300",
    "slug": "tampere-33300"
  },
  {
    "name": "Tampere",
    "zip": "33310",
    "slug": "tampere-33310"
  },
  {
    "name": "Tampere",
    "zip": "33330",
    "slug": "tampere-33330"
  },
  {
    "name": "Tampere",
    "zip": "33340",
    "slug": "tampere-33340"
  },
  {
    "name": "Tampere",
    "zip": "33400",
    "slug": "tampere-33400"
  },
  {
    "name": "Tampere",
    "zip": "33410",
    "slug": "tampere-33410"
  },
  {
    "name": "Tampere",
    "zip": "33420",
    "slug": "tampere-33420"
  },
  {
    "name": "Ylöjärvi",
    "zip": "33430",
    "slug": "ylojarvi-33430"
  },
  {
    "name": "Ylöjärvi",
    "zip": "33440",
    "slug": "ylojarvi-33440"
  },
  {
    "name": "Ylöjärvi",
    "zip": "33450",
    "slug": "ylojarvi-33450"
  },
  {
    "name": "Ylöjärvi",
    "zip": "33470",
    "slug": "ylojarvi-33470"
  },
  {
    "name": "Ylöjärvi",
    "zip": "33480",
    "slug": "ylojarvi-33480"
  },
  {
    "name": "Tampere",
    "zip": "33500",
    "slug": "tampere-33500"
  },
  {
    "name": "Tampere",
    "zip": "33520",
    "slug": "tampere-33520"
  },
  {
    "name": "Tampere",
    "zip": "33530",
    "slug": "tampere-33530"
  },
  {
    "name": "Tampere",
    "zip": "33540",
    "slug": "tampere-33540"
  },
  {
    "name": "Tampere",
    "zip": "33560",
    "slug": "tampere-33560"
  },
  {
    "name": "Tampere",
    "zip": "33580",
    "slug": "tampere-33580"
  },
  {
    "name": "Tampere",
    "zip": "33610",
    "slug": "tampere-33610"
  },
  {
    "name": "Tampere",
    "zip": "33680",
    "slug": "tampere-33680"
  },
  {
    "name": "Tampere",
    "zip": "33700",
    "slug": "tampere-33700"
  },
  {
    "name": "Tampere",
    "zip": "33710",
    "slug": "tampere-33710"
  },
  {
    "name": "Tampere",
    "zip": "33720",
    "slug": "tampere-33720"
  },
  {
    "name": "Tampere",
    "zip": "33730",
    "slug": "tampere-33730"
  },
  {
    "name": "Tampere",
    "zip": "33800",
    "slug": "tampere-33800"
  },
  {
    "name": "Tampere",
    "zip": "33820",
    "slug": "tampere-33820"
  },
  {
    "name": "Tampere",
    "zip": "33840",
    "slug": "tampere-33840"
  },
  {
    "name": "Tampere",
    "zip": "33850",
    "slug": "tampere-33850"
  },
  {
    "name": "Tampere",
    "zip": "33870",
    "slug": "tampere-33870"
  },
  {
    "name": "Lempäälä",
    "zip": "33880",
    "slug": "lempaala-33880"
  },
  {
    "name": "Tampere",
    "zip": "33900",
    "slug": "tampere-33900"
  },
  {
    "name": "Pirkkala",
    "zip": "33950",
    "slug": "pirkkala-33950"
  },
  {
    "name": "Pirkkala",
    "zip": "33960",
    "slug": "pirkkala-33960"
  },
  {
    "name": "Ruovesi",
    "zip": "34600",
    "slug": "ruovesi-34600"
  },
  {
    "name": "Virrat",
    "zip": "34800",
    "slug": "virrat-34800"
  },
  {
    "name": "Virrat",
    "zip": "34870",
    "slug": "virrat-34870"
  },
  {
    "name": "Längelmäki",
    "zip": "35220",
    "slug": "langelmaki-35220"
  },
  {
    "name": "Orivesi",
    "zip": "35300",
    "slug": "orivesi-35300"
  },
  {
    "name": "Orivesi",
    "zip": "35400",
    "slug": "orivesi-35400"
  },
  {
    "name": "Juupajoki",
    "zip": "35500",
    "slug": "juupajoki-35500"
  },
  {
    "name": "Kangasala",
    "zip": "36200",
    "slug": "kangasala-36200"
  },
  {
    "name": "Kangasala",
    "zip": "36220",
    "slug": "kangasala-36220"
  },
  {
    "name": "Kangasala",
    "zip": "36240",
    "slug": "kangasala-36240"
  },
  {
    "name": "Kangasala",
    "zip": "36270",
    "slug": "kangasala-36270"
  },
  {
    "name": "Kangasala",
    "zip": "36280",
    "slug": "kangasala-36280"
  },
  {
    "name": "Pälkäne",
    "zip": "36600",
    "slug": "palkane-36600"
  },
  {
    "name": "Pälkäne",
    "zip": "36630",
    "slug": "palkane-36630"
  },
  {
    "name": "Kuhmalahti",
    "zip": "36710",
    "slug": "kuhmalahti-36710"
  },
  {
    "name": "Luopioinen",
    "zip": "36760",
    "slug": "luopioinen-36760"
  },
  {
    "name": "Nokia",
    "zip": "37100",
    "slug": "nokia-37100"
  },
  {
    "name": "Nokia",
    "zip": "37120",
    "slug": "nokia-37120"
  },
  {
    "name": "Nokia",
    "zip": "37130",
    "slug": "nokia-37130"
  },
  {
    "name": "Nokia",
    "zip": "37140",
    "slug": "nokia-37140"
  },
  {
    "name": "Nokia",
    "zip": "37150",
    "slug": "nokia-37150"
  },
  {
    "name": "Nokia",
    "zip": "37180",
    "slug": "nokia-37180"
  },
  {
    "name": "Nokia",
    "zip": "37200",
    "slug": "nokia-37200"
  },
  {
    "name": "Nokia",
    "zip": "37270",
    "slug": "nokia-37270"
  },
  {
    "name": "Nokia",
    "zip": "37310",
    "slug": "nokia-37310"
  },
  {
    "name": "Nokia",
    "zip": "37370",
    "slug": "nokia-37370"
  },
  {
    "name": "Nokia",
    "zip": "37470",
    "slug": "nokia-37470"
  },
  {
    "name": "Vesilahti",
    "zip": "37470",
    "slug": "vesilahti-37470"
  },
  {
    "name": "Lempäälä",
    "zip": "37500",
    "slug": "lempaala-37500"
  },
  {
    "name": "Lempäälä",
    "zip": "37530",
    "slug": "lempaala-37530"
  },
  {
    "name": "Lempäälä",
    "zip": "37550",
    "slug": "lempaala-37550"
  },
  {
    "name": "Lempäälä",
    "zip": "37560",
    "slug": "lempaala-37560"
  },
  {
    "name": "Lempäälä",
    "zip": "37570",
    "slug": "lempaala-37570"
  },
  {
    "name": "Valkeakoski",
    "zip": "37600",
    "slug": "valkeakoski-37600"
  },
  {
    "name": "Valkeakoski",
    "zip": "37630",
    "slug": "valkeakoski-37630"
  },
  {
    "name": "Valkeakoski",
    "zip": "37700",
    "slug": "valkeakoski-37700"
  },
  {
    "name": "Valkeakoski",
    "zip": "37800",
    "slug": "valkeakoski-37800"
  },
  {
    "name": "Akaa",
    "zip": "37800",
    "slug": "akaa-37800"
  },
  {
    "name": "Akaa",
    "zip": "37830",
    "slug": "akaa-37830"
  },
  {
    "name": "Valkeakoski",
    "zip": "37850",
    "slug": "valkeakoski-37850"
  },
  {
    "name": "Akaa",
    "zip": "37850",
    "slug": "akaa-37850"
  },
  {
    "name": "Akaa",
    "zip": "37860",
    "slug": "akaa-37860"
  },
  {
    "name": "Akaa",
    "zip": "37910",
    "slug": "akaa-37910"
  },
  {
    "name": "Kylmäkoski",
    "zip": "37910",
    "slug": "kylmakoski-37910"
  },
  {
    "name": "Sastamala",
    "zip": "38100",
    "slug": "sastamala-38100"
  },
  {
    "name": "Sastamala",
    "zip": "38120",
    "slug": "sastamala-38120"
  },
  {
    "name": "Sastamala",
    "zip": "38130",
    "slug": "sastamala-38130"
  },
  {
    "name": "Sastamala",
    "zip": "38140",
    "slug": "sastamala-38140"
  },
  {
    "name": "Sastamala",
    "zip": "38200",
    "slug": "sastamala-38200"
  },
  {
    "name": "Vammala",
    "zip": "38200",
    "slug": "vammala-38200"
  },
  {
    "name": "Sastamala",
    "zip": "38210",
    "slug": "sastamala-38210"
  },
  {
    "name": "Sastamala",
    "zip": "38220",
    "slug": "sastamala-38220"
  },
  {
    "name": "Sastamala",
    "zip": "38270",
    "slug": "sastamala-38270"
  },
  {
    "name": "Sastamala",
    "zip": "38280",
    "slug": "sastamala-38280"
  },
  {
    "name": "Sastamala",
    "zip": "38300",
    "slug": "sastamala-38300"
  },
  {
    "name": "Mouhijärvi",
    "zip": "38460",
    "slug": "mouhijarvi-38460"
  },
  {
    "name": "Kankaanpää",
    "zip": "38700",
    "slug": "kankaanpaa-38700"
  },
  {
    "name": "Kankaanpää",
    "zip": "38720",
    "slug": "kankaanpaa-38720"
  },
  {
    "name": "Jämijärvi",
    "zip": "38800",
    "slug": "jamijarvi-38800"
  },
  {
    "name": "Honkajoki",
    "zip": "38950",
    "slug": "honkajoki-38950"
  },
  {
    "name": "Hämeenkyrö",
    "zip": "39100",
    "slug": "hameenkyro-39100"
  },
  {
    "name": "Hämeenkyrö",
    "zip": "39150",
    "slug": "hameenkyro-39150"
  },
  {
    "name": "Ikaalinen",
    "zip": "39500",
    "slug": "ikaalinen-39500"
  },
  {
    "name": "Ikaalinen",
    "zip": "39560",
    "slug": "ikaalinen-39560"
  },
  {
    "name": "Parkano",
    "zip": "39700",
    "slug": "parkano-39700"
  },
  {
    "name": "Parkano",
    "zip": "39760",
    "slug": "parkano-39760"
  },
  {
    "name": "Kihniö",
    "zip": "39820",
    "slug": "kihnio-39820"
  },
  {
    "name": "Karvia",
    "zip": "39930",
    "slug": "karvia-39930"
  },
  {
    "name": "Jyväskylä",
    "zip": "40100",
    "slug": "jyvaskyla-40100"
  },
  {
    "name": "Jyväskylä",
    "zip": "40200",
    "slug": "jyvaskyla-40200"
  },
  {
    "name": "Jyväskylä",
    "zip": "40250",
    "slug": "jyvaskyla-40250"
  },
  {
    "name": "Jyväskylä",
    "zip": "40270",
    "slug": "jyvaskyla-40270"
  },
  {
    "name": "Jyväskylä",
    "zip": "40320",
    "slug": "jyvaskyla-40320"
  },
  {
    "name": "Jyväskylä",
    "zip": "40340",
    "slug": "jyvaskyla-40340"
  },
  {
    "name": "Jyväskylä",
    "zip": "40350",
    "slug": "jyvaskyla-40350"
  },
  {
    "name": "Jyväskylä",
    "zip": "40400",
    "slug": "jyvaskyla-40400"
  },
  {
    "name": "Jyväskylä",
    "zip": "40420",
    "slug": "jyvaskyla-40420"
  },
  {
    "name": "Jyväskylä",
    "zip": "40500",
    "slug": "jyvaskyla-40500"
  },
  {
    "name": "Jyväskylä",
    "zip": "40520",
    "slug": "jyvaskyla-40520"
  },
  {
    "name": "Jyväskylä",
    "zip": "40530",
    "slug": "jyvaskyla-40530"
  },
  {
    "name": "Jyväskylä",
    "zip": "40600",
    "slug": "jyvaskyla-40600"
  },
  {
    "name": "Jyväskylä",
    "zip": "40620",
    "slug": "jyvaskyla-40620"
  },
  {
    "name": "Jyväskylä",
    "zip": "40630",
    "slug": "jyvaskyla-40630"
  },
  {
    "name": "Jyväskylä",
    "zip": "40640",
    "slug": "jyvaskyla-40640"
  },
  {
    "name": "Jyväskylä",
    "zip": "40660",
    "slug": "jyvaskyla-40660"
  },
  {
    "name": "Jyväskylä",
    "zip": "40700",
    "slug": "jyvaskyla-40700"
  },
  {
    "name": "Jyväskylä",
    "zip": "40720",
    "slug": "jyvaskyla-40720"
  },
  {
    "name": "Jyväskylä",
    "zip": "40740",
    "slug": "jyvaskyla-40740"
  },
  {
    "name": "Jyväskylä",
    "zip": "40800",
    "slug": "jyvaskyla-40800"
  },
  {
    "name": "Jyväskylä",
    "zip": "40820",
    "slug": "jyvaskyla-40820"
  },
  {
    "name": "Jyväskylä",
    "zip": "40900",
    "slug": "jyvaskyla-40900"
  },
  {
    "name": "Muurame",
    "zip": "40950",
    "slug": "muurame-40950"
  },
  {
    "name": "Laukaa",
    "zip": "41330",
    "slug": "laukaa-41330"
  },
  {
    "name": "Laukaa",
    "zip": "41340",
    "slug": "laukaa-41340"
  },
  {
    "name": "Laukaa",
    "zip": "41360",
    "slug": "laukaa-41360"
  },
  {
    "name": "Laukaa",
    "zip": "41370",
    "slug": "laukaa-41370"
  },
  {
    "name": "Laukaa",
    "zip": "41390",
    "slug": "laukaa-41390"
  },
  {
    "name": "Laukaa",
    "zip": "41400",
    "slug": "laukaa-41400"
  },
  {
    "name": "Hankasalmi",
    "zip": "41500",
    "slug": "hankasalmi-41500"
  },
  {
    "name": "Hankasalmi",
    "zip": "41520",
    "slug": "hankasalmi-41520"
  },
  {
    "name": "Petäjävesi",
    "zip": "41900",
    "slug": "petajavesi-41900"
  },
  {
    "name": "Jämsä",
    "zip": "42100",
    "slug": "jamsa-42100"
  },
  {
    "name": "Jämsä",
    "zip": "42120",
    "slug": "jamsa-42120"
  },
  {
    "name": "Jämsä",
    "zip": "42300",
    "slug": "jamsa-42300"
  },
  {
    "name": "Multia",
    "zip": "42600",
    "slug": "multia-42600"
  },
  {
    "name": "Keuruu",
    "zip": "42700",
    "slug": "keuruu-42700"
  },
  {
    "name": "Keuruu",
    "zip": "42720",
    "slug": "keuruu-42720"
  },
  {
    "name": "Äänekoski",
    "zip": "44100",
    "slug": "aanekoski-44100"
  },
  {
    "name": "Äänekoski",
    "zip": "44120",
    "slug": "aanekoski-44120"
  },
  {
    "name": "Äänekoski",
    "zip": "44150",
    "slug": "aanekoski-44150"
  },
  {
    "name": "Äänekoski",
    "zip": "44200",
    "slug": "aanekoski-44200"
  },
  {
    "name": "Äänekoski",
    "zip": "44220",
    "slug": "aanekoski-44220"
  },
  {
    "name": "Äänekoski",
    "zip": "44250",
    "slug": "aanekoski-44250"
  },
  {
    "name": "Äänekoski",
    "zip": "44260",
    "slug": "aanekoski-44260"
  },
  {
    "name": "Äänekoski",
    "zip": "44280",
    "slug": "aanekoski-44280"
  },
  {
    "name": "Äänekoski",
    "zip": "44300",
    "slug": "aanekoski-44300"
  },
  {
    "name": "Viitasaari",
    "zip": "44500",
    "slug": "viitasaari-44500"
  },
  {
    "name": "Viitasaari",
    "zip": "44520",
    "slug": "viitasaari-44520"
  },
  {
    "name": "Pihtipudas",
    "zip": "44800",
    "slug": "pihtipudas-44800"
  },
  {
    "name": "Pihtipudas",
    "zip": "44820",
    "slug": "pihtipudas-44820"
  },
  {
    "name": "Kouvola",
    "zip": "45100",
    "slug": "kouvola-45100"
  },
  {
    "name": "Kouvola",
    "zip": "45120",
    "slug": "kouvola-45120"
  },
  {
    "name": "Kouvola",
    "zip": "45130",
    "slug": "kouvola-45130"
  },
  {
    "name": "Kouvola",
    "zip": "45150",
    "slug": "kouvola-45150"
  },
  {
    "name": "Kouvola",
    "zip": "45160",
    "slug": "kouvola-45160"
  },
  {
    "name": "Kouvola",
    "zip": "45200",
    "slug": "kouvola-45200"
  },
  {
    "name": "Kouvola",
    "zip": "45360",
    "slug": "kouvola-45360"
  },
  {
    "name": "Kouvola",
    "zip": "45370",
    "slug": "kouvola-45370"
  },
  {
    "name": "Kouvola",
    "zip": "45400",
    "slug": "kouvola-45400"
  },
  {
    "name": "Kouvola",
    "zip": "45410",
    "slug": "kouvola-45410"
  },
  {
    "name": "Kouvola",
    "zip": "45420",
    "slug": "kouvola-45420"
  },
  {
    "name": "Kouvola",
    "zip": "45610",
    "slug": "kouvola-45610"
  },
  {
    "name": "Kouvola",
    "zip": "45700",
    "slug": "kouvola-45700"
  },
  {
    "name": "Kuusankoski",
    "zip": "45700",
    "slug": "kuusankoski-45700"
  },
  {
    "name": "Kouvola",
    "zip": "45720",
    "slug": "kouvola-45720"
  },
  {
    "name": "Kuusankoski",
    "zip": "45720",
    "slug": "kuusankoski-45720"
  },
  {
    "name": "Kouvola",
    "zip": "45810",
    "slug": "kouvola-45810"
  },
  {
    "name": "Valkeala",
    "zip": "45940",
    "slug": "valkeala-45940"
  },
  {
    "name": "Anjalankoski",
    "zip": "46800",
    "slug": "anjalankoski-46800"
  },
  {
    "name": "Anjalankoski",
    "zip": "46860",
    "slug": "anjalankoski-46860"
  },
  {
    "name": "Elimäki",
    "zip": "47200",
    "slug": "elimaki-47200"
  },
  {
    "name": "Elimäki",
    "zip": "47260",
    "slug": "elimaki-47260"
  },
  {
    "name": "Iitti",
    "zip": "47400",
    "slug": "iitti-47400"
  },
  {
    "name": "Iitti",
    "zip": "47450",
    "slug": "iitti-47450"
  },
  {
    "name": "Jaala",
    "zip": "47710",
    "slug": "jaala-47710"
  },
  {
    "name": "Kotka",
    "zip": "48100",
    "slug": "kotka-48100"
  },
  {
    "name": "Kotka",
    "zip": "48130",
    "slug": "kotka-48130"
  },
  {
    "name": "Kotka",
    "zip": "48200",
    "slug": "kotka-48200"
  },
  {
    "name": "Kotka",
    "zip": "48210",
    "slug": "kotka-48210"
  },
  {
    "name": "Kotka",
    "zip": "48220",
    "slug": "kotka-48220"
  },
  {
    "name": "Kotka",
    "zip": "48230",
    "slug": "kotka-48230"
  },
  {
    "name": "Kotka",
    "zip": "48300",
    "slug": "kotka-48300"
  },
  {
    "name": "Kotka",
    "zip": "48310",
    "slug": "kotka-48310"
  },
  {
    "name": "Kotka",
    "zip": "48350",
    "slug": "kotka-48350"
  },
  {
    "name": "Kotka",
    "zip": "48400",
    "slug": "kotka-48400"
  },
  {
    "name": "Kotka",
    "zip": "48410",
    "slug": "kotka-48410"
  },
  {
    "name": "Kotka",
    "zip": "48600",
    "slug": "kotka-48600"
  },
  {
    "name": "Kotka",
    "zip": "48700",
    "slug": "kotka-48700"
  },
  {
    "name": "Kotka",
    "zip": "48710",
    "slug": "kotka-48710"
  },
  {
    "name": "Kotka",
    "zip": "48800",
    "slug": "kotka-48800"
  },
  {
    "name": "Kotka",
    "zip": "48900",
    "slug": "kotka-48900"
  },
  {
    "name": "Kotka",
    "zip": "48930",
    "slug": "kotka-48930"
  },
  {
    "name": "Pyhtää",
    "zip": "49210",
    "slug": "pyhtaa-49210"
  },
  {
    "name": "Pyhtää",
    "zip": "49220",
    "slug": "pyhtaa-49220"
  },
  {
    "name": "Hamina",
    "zip": "49400",
    "slug": "hamina-49400"
  },
  {
    "name": "Hamina",
    "zip": "49410",
    "slug": "hamina-49410"
  },
  {
    "name": "Hamina",
    "zip": "49420",
    "slug": "hamina-49420"
  },
  {
    "name": "Hamina",
    "zip": "49480",
    "slug": "hamina-49480"
  },
  {
    "name": "Hamina",
    "zip": "49490",
    "slug": "hamina-49490"
  },
  {
    "name": "Hamina",
    "zip": "49510",
    "slug": "hamina-49510"
  },
  {
    "name": "Hamina",
    "zip": "49540",
    "slug": "hamina-49540"
  },
  {
    "name": "Hamina",
    "zip": "49570",
    "slug": "hamina-49570"
  },
  {
    "name": "Hamina",
    "zip": "49600",
    "slug": "hamina-49600"
  },
  {
    "name": "Hamina",
    "zip": "49660",
    "slug": "hamina-49660"
  },
  {
    "name": "Hamina",
    "zip": "49700",
    "slug": "hamina-49700"
  },
  {
    "name": "Miehikkälä",
    "zip": "49700",
    "slug": "miehikkala-49700"
  },
  {
    "name": "Hamina",
    "zip": "49730",
    "slug": "hamina-49730"
  },
  {
    "name": "Hamina",
    "zip": "49760",
    "slug": "hamina-49760"
  },
  {
    "name": "Hamina",
    "zip": "49900",
    "slug": "hamina-49900"
  },
  {
    "name": "Virolahti",
    "zip": "49900",
    "slug": "virolahti-49900"
  },
  {
    "name": "Virolahti",
    "zip": "49960",
    "slug": "virolahti-49960"
  },
  {
    "name": "Mikkeli",
    "zip": "50100",
    "slug": "mikkeli-50100"
  },
  {
    "name": "Mikkeli",
    "zip": "50120",
    "slug": "mikkeli-50120"
  },
  {
    "name": "Mikkeli",
    "zip": "50130",
    "slug": "mikkeli-50130"
  },
  {
    "name": "Mikkeli",
    "zip": "50150",
    "slug": "mikkeli-50150"
  },
  {
    "name": "Mikkeli",
    "zip": "50170",
    "slug": "mikkeli-50170"
  },
  {
    "name": "Mikkeli",
    "zip": "50190",
    "slug": "mikkeli-50190"
  },
  {
    "name": "Mikkeli",
    "zip": "50200",
    "slug": "mikkeli-50200"
  },
  {
    "name": "Mikkeli",
    "zip": "50350",
    "slug": "mikkeli-50350"
  },
  {
    "name": "Mikkeli",
    "zip": "50600",
    "slug": "mikkeli-50600"
  },
  {
    "name": "Mikkeli",
    "zip": "50670",
    "slug": "mikkeli-50670"
  },
  {
    "name": "Kangasniemi",
    "zip": "51200",
    "slug": "kangasniemi-51200"
  },
  {
    "name": "Juva",
    "zip": "51900",
    "slug": "juva-51900"
  },
  {
    "name": "Juva",
    "zip": "51930",
    "slug": "juva-51930"
  },
  {
    "name": "Puumala",
    "zip": "52200",
    "slug": "puumala-52200"
  },
  {
    "name": "Hirvensalmi",
    "zip": "52550",
    "slug": "hirvensalmi-52550"
  },
  {
    "name": "Mäntyharju",
    "zip": "52700",
    "slug": "mantyharju-52700"
  },
  {
    "name": "Mäntyharju",
    "zip": "52720",
    "slug": "mantyharju-52720"
  },
  {
    "name": "Lappeenranta",
    "zip": "53100",
    "slug": "lappeenranta-53100"
  },
  {
    "name": "Lappeenranta",
    "zip": "53130",
    "slug": "lappeenranta-53130"
  },
  {
    "name": "Lappeenranta",
    "zip": "53200",
    "slug": "lappeenranta-53200"
  },
  {
    "name": "Lappeenranta",
    "zip": "53300",
    "slug": "lappeenranta-53300"
  },
  {
    "name": "Lappeenranta",
    "zip": "53420",
    "slug": "lappeenranta-53420"
  },
  {
    "name": "Lappeenranta",
    "zip": "53500",
    "slug": "lappeenranta-53500"
  },
  {
    "name": "Lappeenranta",
    "zip": "53600",
    "slug": "lappeenranta-53600"
  },
  {
    "name": "Lappeenranta",
    "zip": "53810",
    "slug": "lappeenranta-53810"
  },
  {
    "name": "Lappeenranta",
    "zip": "53850",
    "slug": "lappeenranta-53850"
  },
  {
    "name": "Lappeenranta",
    "zip": "53900",
    "slug": "lappeenranta-53900"
  },
  {
    "name": "Lappeenranta",
    "zip": "53920",
    "slug": "lappeenranta-53920"
  },
  {
    "name": "Luumäki",
    "zip": "54500",
    "slug": "luumaki-54500"
  },
  {
    "name": "Luumäki",
    "zip": "54530",
    "slug": "luumaki-54530"
  },
  {
    "name": "Lemi",
    "zip": "54710",
    "slug": "lemi-54710"
  },
  {
    "name": "Savitaipale",
    "zip": "54800",
    "slug": "savitaipale-54800"
  },
  {
    "name": "Taipalsaari",
    "zip": "54920",
    "slug": "taipalsaari-54920"
  },
  {
    "name": "Taipalsaari",
    "zip": "54940",
    "slug": "taipalsaari-54940"
  },
  {
    "name": "Imatra",
    "zip": "55100",
    "slug": "imatra-55100"
  },
  {
    "name": "Imatra",
    "zip": "55120",
    "slug": "imatra-55120"
  },
  {
    "name": "Imatra",
    "zip": "55300",
    "slug": "imatra-55300"
  },
  {
    "name": "Imatra",
    "zip": "55400",
    "slug": "imatra-55400"
  },
  {
    "name": "Imatra",
    "zip": "55420",
    "slug": "imatra-55420"
  },
  {
    "name": "Imatra",
    "zip": "55510",
    "slug": "imatra-55510"
  },
  {
    "name": "Imatra",
    "zip": "55610",
    "slug": "imatra-55610"
  },
  {
    "name": "Imatra",
    "zip": "55700",
    "slug": "imatra-55700"
  },
  {
    "name": "Imatra",
    "zip": "55800",
    "slug": "imatra-55800"
  },
  {
    "name": "Imatra",
    "zip": "55910",
    "slug": "imatra-55910"
  },
  {
    "name": "Ruokolahti",
    "zip": "56100",
    "slug": "ruokolahti-56100"
  },
  {
    "name": "Ruokolahti",
    "zip": "56210",
    "slug": "ruokolahti-56210"
  },
  {
    "name": "Rautjärvi",
    "zip": "56610",
    "slug": "rautjarvi-56610"
  },
  {
    "name": "Rautjärvi",
    "zip": "56800",
    "slug": "rautjarvi-56800"
  },
  {
    "name": "Savonlinna",
    "zip": "57100",
    "slug": "savonlinna-57100"
  },
  {
    "name": "Savonlinna",
    "zip": "57120",
    "slug": "savonlinna-57120"
  },
  {
    "name": "Savonlinna",
    "zip": "57130",
    "slug": "savonlinna-57130"
  },
  {
    "name": "Savonlinna",
    "zip": "57170",
    "slug": "savonlinna-57170"
  },
  {
    "name": "Savonlinna",
    "zip": "57200",
    "slug": "savonlinna-57200"
  },
  {
    "name": "Savonlinna",
    "zip": "57210",
    "slug": "savonlinna-57210"
  },
  {
    "name": "Savonlinna",
    "zip": "57230",
    "slug": "savonlinna-57230"
  },
  {
    "name": "Savonlinna",
    "zip": "57310",
    "slug": "savonlinna-57310"
  },
  {
    "name": "Enonkoski",
    "zip": "58175",
    "slug": "enonkoski-58175"
  },
  {
    "name": "Kerimäki",
    "zip": "58200",
    "slug": "kerimaki-58200"
  },
  {
    "name": "Punkaharju",
    "zip": "58450",
    "slug": "punkaharju-58450"
  },
  {
    "name": "Sulkava",
    "zip": "58700",
    "slug": "sulkava-58700"
  },
  {
    "name": "Rantasalmi",
    "zip": "58900",
    "slug": "rantasalmi-58900"
  },
  {
    "name": "Parikkala",
    "zip": "59100",
    "slug": "parikkala-59100"
  },
  {
    "name": "Parikkala",
    "zip": "59130",
    "slug": "parikkala-59130"
  },
  {
    "name": "Seinäjoki",
    "zip": "60100",
    "slug": "seinajoki-60100"
  },
  {
    "name": "Seinäjoki",
    "zip": "60120",
    "slug": "seinajoki-60120"
  },
  {
    "name": "Seinäjoki",
    "zip": "60150",
    "slug": "seinajoki-60150"
  },
  {
    "name": "Seinäjoki",
    "zip": "60200",
    "slug": "seinajoki-60200"
  },
  {
    "name": "Seinäjoki",
    "zip": "60220",
    "slug": "seinajoki-60220"
  },
  {
    "name": "Seinäjoki",
    "zip": "60280",
    "slug": "seinajoki-60280"
  },
  {
    "name": "Seinäjoki",
    "zip": "60320",
    "slug": "seinajoki-60320"
  },
  {
    "name": "Seinäjoki",
    "zip": "60420",
    "slug": "seinajoki-60420"
  },
  {
    "name": "Seinäjoki",
    "zip": "60510",
    "slug": "seinajoki-60510"
  },
  {
    "name": "Seinäjoki",
    "zip": "60550",
    "slug": "seinajoki-60550"
  },
  {
    "name": "Nurmo",
    "zip": "60550",
    "slug": "nurmo-60550"
  },
  {
    "name": "Seinäjoki",
    "zip": "60640",
    "slug": "seinajoki-60640"
  },
  {
    "name": "Seinäjoki",
    "zip": "60800",
    "slug": "seinajoki-60800"
  },
  {
    "name": "Kurikka",
    "zip": "61300",
    "slug": "kurikka-61300"
  },
  {
    "name": "Kurikka",
    "zip": "61330",
    "slug": "kurikka-61330"
  },
  {
    "name": "Kurikka",
    "zip": "61380",
    "slug": "kurikka-61380"
  },
  {
    "name": "Kurikka",
    "zip": "61400",
    "slug": "kurikka-61400"
  },
  {
    "name": "Ylistaro",
    "zip": "61400",
    "slug": "ylistaro-61400"
  },
  {
    "name": "Kurikka",
    "zip": "61410",
    "slug": "kurikka-61410"
  },
  {
    "name": "Kurikka",
    "zip": "61420",
    "slug": "kurikka-61420"
  },
  {
    "name": "Kurikka",
    "zip": "61430",
    "slug": "kurikka-61430"
  },
  {
    "name": "Kurikka",
    "zip": "61450",
    "slug": "kurikka-61450"
  },
  {
    "name": "Kurikka",
    "zip": "61470",
    "slug": "kurikka-61470"
  },
  {
    "name": "Kurikka",
    "zip": "61500",
    "slug": "kurikka-61500"
  },
  {
    "name": "Isokyrö",
    "zip": "61500",
    "slug": "isokyro-61500"
  },
  {
    "name": "Kurikka",
    "zip": "61550",
    "slug": "kurikka-61550"
  },
  {
    "name": "Kurikka",
    "zip": "61560",
    "slug": "kurikka-61560"
  },
  {
    "name": "Kurikka",
    "zip": "61600",
    "slug": "kurikka-61600"
  },
  {
    "name": "Kauhajoki",
    "zip": "61800",
    "slug": "kauhajoki-61800"
  },
  {
    "name": "Kauhajoki",
    "zip": "61850",
    "slug": "kauhajoki-61850"
  },
  {
    "name": "Lapua",
    "zip": "62100",
    "slug": "lapua-62100"
  },
  {
    "name": "Kauhava",
    "zip": "62200",
    "slug": "kauhava-62200"
  },
  {
    "name": "Kauhava",
    "zip": "62220",
    "slug": "kauhava-62220"
  },
  {
    "name": "Kauhava",
    "zip": "62300",
    "slug": "kauhava-62300"
  },
  {
    "name": "Kauhava",
    "zip": "62375",
    "slug": "kauhava-62375"
  },
  {
    "name": "Kauhava",
    "zip": "62395",
    "slug": "kauhava-62395"
  },
  {
    "name": "Kauhava",
    "zip": "62400",
    "slug": "kauhava-62400"
  },
  {
    "name": "Kortesjärvi",
    "zip": "62420",
    "slug": "kortesjarvi-62420"
  },
  {
    "name": "Evijärvi",
    "zip": "62500",
    "slug": "evijarvi-62500"
  },
  {
    "name": "Lappajärvi",
    "zip": "62600",
    "slug": "lappajarvi-62600"
  },
  {
    "name": "Vimpeli",
    "zip": "62800",
    "slug": "vimpeli-62800"
  },
  {
    "name": "Alajärvi",
    "zip": "62900",
    "slug": "alajarvi-62900"
  },
  {
    "name": "Alajärvi",
    "zip": "62920",
    "slug": "alajarvi-62920"
  },
  {
    "name": "Alavus",
    "zip": "63300",
    "slug": "alavus-63300"
  },
  {
    "name": "Alavus",
    "zip": "63400",
    "slug": "alavus-63400"
  },
  {
    "name": "Lehtimäki",
    "zip": "63500",
    "slug": "lehtimaki-63500"
  },
  {
    "name": "Töysä",
    "zip": "63600",
    "slug": "toysa-63600"
  },
  {
    "name": "Ähtäri",
    "zip": "63700",
    "slug": "ahtari-63700"
  },
  {
    "name": "Soini",
    "zip": "63800",
    "slug": "soini-63800"
  },
  {
    "name": "Ähtäri",
    "zip": "63900",
    "slug": "ahtari-63900"
  },
  {
    "name": "Kristiinankaupunki",
    "zip": "64100",
    "slug": "kristiinankaupunki-64100"
  },
  {
    "name": "Kristiinankaupunki",
    "zip": "64130",
    "slug": "kristiinankaupunki-64130"
  },
  {
    "name": "Närpiö",
    "zip": "64200",
    "slug": "narpio-64200"
  },
  {
    "name": "Närpiö",
    "zip": "64220",
    "slug": "narpio-64220"
  },
  {
    "name": "Kaskinen",
    "zip": "64260",
    "slug": "kaskinen-64260"
  },
  {
    "name": "Karijoki",
    "zip": "64350",
    "slug": "karijoki-64350"
  },
  {
    "name": "Teuva",
    "zip": "64700",
    "slug": "teuva-64700"
  },
  {
    "name": "Isojoki",
    "zip": "64900",
    "slug": "isojoki-64900"
  },
  {
    "name": "Vaasa",
    "zip": "65100",
    "slug": "vaasa-65100"
  },
  {
    "name": "Vaasa",
    "zip": "65130",
    "slug": "vaasa-65130"
  },
  {
    "name": "Vaasa",
    "zip": "65170",
    "slug": "vaasa-65170"
  },
  {
    "name": "Vaasa",
    "zip": "65200",
    "slug": "vaasa-65200"
  },
  {
    "name": "Vaasa",
    "zip": "65230",
    "slug": "vaasa-65230"
  },
  {
    "name": "Vaasa",
    "zip": "65280",
    "slug": "vaasa-65280"
  },
  {
    "name": "Vaasa",
    "zip": "65300",
    "slug": "vaasa-65300"
  },
  {
    "name": "Vaasa",
    "zip": "65320",
    "slug": "vaasa-65320"
  },
  {
    "name": "Vaasa",
    "zip": "65350",
    "slug": "vaasa-65350"
  },
  {
    "name": "Vaasa",
    "zip": "65370",
    "slug": "vaasa-65370"
  },
  {
    "name": "Vaasa",
    "zip": "65380",
    "slug": "vaasa-65380"
  },
  {
    "name": "Vaasa",
    "zip": "65410",
    "slug": "vaasa-65410"
  },
  {
    "name": "Mustasaari",
    "zip": "65450",
    "slug": "mustasaari-65450"
  },
  {
    "name": "Mustasaari",
    "zip": "65460",
    "slug": "mustasaari-65460"
  },
  {
    "name": "Mustasaari",
    "zip": "65470",
    "slug": "mustasaari-65470"
  },
  {
    "name": "Mustasaari",
    "zip": "65480",
    "slug": "mustasaari-65480"
  },
  {
    "name": "Mustasaari",
    "zip": "65520",
    "slug": "mustasaari-65520"
  },
  {
    "name": "Mustasaari",
    "zip": "65610",
    "slug": "mustasaari-65610"
  },
  {
    "name": "Maalahti",
    "zip": "66100",
    "slug": "maalahti-66100"
  },
  {
    "name": "Korsnäs",
    "zip": "66200",
    "slug": "korsnas-66200"
  },
  {
    "name": "Jurva",
    "zip": "66300",
    "slug": "jurva-66300"
  },
  {
    "name": "Laihia",
    "zip": "66400",
    "slug": "laihia-66400"
  },
  {
    "name": "Vöyri",
    "zip": "66600",
    "slug": "voyri-66600"
  },
  {
    "name": "Oravainen",
    "zip": "66800",
    "slug": "oravainen-66800"
  },
  {
    "name": "Uusikaarlepyy",
    "zip": "66900",
    "slug": "uusikaarlepyy-66900"
  },
  {
    "name": "Kokkola",
    "zip": "67100",
    "slug": "kokkola-67100"
  },
  {
    "name": "Kokkola",
    "zip": "67200",
    "slug": "kokkola-67200"
  },
  {
    "name": "Kokkola",
    "zip": "67300",
    "slug": "kokkola-67300"
  },
  {
    "name": "Kokkola",
    "zip": "67400",
    "slug": "kokkola-67400"
  },
  {
    "name": "Kokkola",
    "zip": "67600",
    "slug": "kokkola-67600"
  },
  {
    "name": "Kokkola",
    "zip": "67700",
    "slug": "kokkola-67700"
  },
  {
    "name": "Kokkola",
    "zip": "67800",
    "slug": "kokkola-67800"
  },
  {
    "name": "Kokkola",
    "zip": "67900",
    "slug": "kokkola-67900"
  },
  {
    "name": "Himanka",
    "zip": "68100",
    "slug": "himanka-68100"
  },
  {
    "name": "Lohtaja",
    "zip": "68230",
    "slug": "lohtaja-68230"
  },
  {
    "name": "Kälviä",
    "zip": "68300",
    "slug": "kalvia-68300"
  },
  {
    "name": "Kruunupyy",
    "zip": "68500",
    "slug": "kruunupyy-68500"
  },
  {
    "name": "Luoto",
    "zip": "68570",
    "slug": "luoto-68570"
  },
  {
    "name": "Pietarsaari",
    "zip": "68600",
    "slug": "pietarsaari-68600"
  },
  {
    "name": "Pedersöre",
    "zip": "68600",
    "slug": "pedersore-68600"
  },
  {
    "name": "Pietarsaari",
    "zip": "68620",
    "slug": "pietarsaari-68620"
  },
  {
    "name": "Pietarsaari",
    "zip": "68660",
    "slug": "pietarsaari-68660"
  },
  {
    "name": "Pietarsaari",
    "zip": "68700",
    "slug": "pietarsaari-68700"
  },
  {
    "name": "Kannus",
    "zip": "69100",
    "slug": "kannus-69100"
  },
  {
    "name": "Toholampi",
    "zip": "69300",
    "slug": "toholampi-69300"
  },
  {
    "name": "Lestijärvi",
    "zip": "69440",
    "slug": "lestijarvi-69440"
  },
  {
    "name": "Halsua",
    "zip": "69510",
    "slug": "halsua-69510"
  },
  {
    "name": "Kaustinen",
    "zip": "69600",
    "slug": "kaustinen-69600"
  },
  {
    "name": "Veteli",
    "zip": "69700",
    "slug": "veteli-69700"
  },
  {
    "name": "Perho",
    "zip": "69950",
    "slug": "perho-69950"
  },
  {
    "name": "Kuopio",
    "zip": "70100",
    "slug": "kuopio-70100"
  },
  {
    "name": "Kuopio",
    "zip": "70110",
    "slug": "kuopio-70110"
  },
  {
    "name": "Kuopio",
    "zip": "70150",
    "slug": "kuopio-70150"
  },
  {
    "name": "Kuopio",
    "zip": "70200",
    "slug": "kuopio-70200"
  },
  {
    "name": "Kuopio",
    "zip": "70210",
    "slug": "kuopio-70210"
  },
  {
    "name": "Kuopio",
    "zip": "70260",
    "slug": "kuopio-70260"
  },
  {
    "name": "Kuopio",
    "zip": "70280",
    "slug": "kuopio-70280"
  },
  {
    "name": "Kuopio",
    "zip": "70340",
    "slug": "kuopio-70340"
  },
  {
    "name": "Kuopio",
    "zip": "70400",
    "slug": "kuopio-70400"
  },
  {
    "name": "Kuopio",
    "zip": "70420",
    "slug": "kuopio-70420"
  },
  {
    "name": "Kuopio",
    "zip": "70460",
    "slug": "kuopio-70460"
  },
  {
    "name": "Kuopio",
    "zip": "70500",
    "slug": "kuopio-70500"
  },
  {
    "name": "Kuopio",
    "zip": "70600",
    "slug": "kuopio-70600"
  },
  {
    "name": "Kuopio",
    "zip": "70620",
    "slug": "kuopio-70620"
  },
  {
    "name": "Kuopio",
    "zip": "70700",
    "slug": "kuopio-70700"
  },
  {
    "name": "Kuopio",
    "zip": "70780",
    "slug": "kuopio-70780"
  },
  {
    "name": "Kuopio",
    "zip": "70800",
    "slug": "kuopio-70800"
  },
  {
    "name": "Kuopio",
    "zip": "70820",
    "slug": "kuopio-70820"
  },
  {
    "name": "Kuopio",
    "zip": "70840",
    "slug": "kuopio-70840"
  },
  {
    "name": "Kuopio",
    "zip": "70870",
    "slug": "kuopio-70870"
  },
  {
    "name": "Kuopio",
    "zip": "70900",
    "slug": "kuopio-70900"
  },
  {
    "name": "Siilinjärvi",
    "zip": "70900",
    "slug": "siilinjarvi-70900"
  },
  {
    "name": "Siilinjärvi",
    "zip": "71800",
    "slug": "siilinjarvi-71800"
  },
  {
    "name": "Iisalmi",
    "zip": "74100",
    "slug": "iisalmi-74100"
  },
  {
    "name": "Iisalmi",
    "zip": "74120",
    "slug": "iisalmi-74120"
  },
  {
    "name": "Iisalmi",
    "zip": "74130",
    "slug": "iisalmi-74130"
  },
  {
    "name": "Iisalmi",
    "zip": "74160",
    "slug": "iisalmi-74160"
  },
  {
    "name": "Iisalmi",
    "zip": "74200",
    "slug": "iisalmi-74200"
  },
  {
    "name": "Iisalmi",
    "zip": "74240",
    "slug": "iisalmi-74240"
  },
  {
    "name": "Iisalmi",
    "zip": "74270",
    "slug": "iisalmi-74270"
  },
  {
    "name": "Iisalmi",
    "zip": "74300",
    "slug": "iisalmi-74300"
  },
  {
    "name": "Iisalmi",
    "zip": "74390",
    "slug": "iisalmi-74390"
  },
  {
    "name": "Iisalmi",
    "zip": "74460",
    "slug": "iisalmi-74460"
  },
  {
    "name": "Iisalmi",
    "zip": "74510",
    "slug": "iisalmi-74510"
  },
  {
    "name": "Iisalmi",
    "zip": "74550",
    "slug": "iisalmi-74550"
  },
  {
    "name": "Iisalmi",
    "zip": "74590",
    "slug": "iisalmi-74590"
  },
  {
    "name": "Iisalmi",
    "zip": "74630",
    "slug": "iisalmi-74630"
  },
  {
    "name": "Iisalmi",
    "zip": "74680",
    "slug": "iisalmi-74680"
  },
  {
    "name": "Iisalmi",
    "zip": "74700",
    "slug": "iisalmi-74700"
  },
  {
    "name": "Iisalmi",
    "zip": "74740",
    "slug": "iisalmi-74740"
  },
  {
    "name": "Nurmes",
    "zip": "75500",
    "slug": "nurmes-75500"
  },
  {
    "name": "Nurmes",
    "zip": "75530",
    "slug": "nurmes-75530"
  },
  {
    "name": "Nurmes",
    "zip": "75550",
    "slug": "nurmes-75550"
  },
  {
    "name": "Pieksämäki",
    "zip": "76100",
    "slug": "pieksamaki-76100"
  },
  {
    "name": "Pieksämäki",
    "zip": "76120",
    "slug": "pieksamaki-76120"
  },
  {
    "name": "Pieksämäki",
    "zip": "76150",
    "slug": "pieksamaki-76150"
  },
  {
    "name": "Pieksämäki",
    "zip": "76280",
    "slug": "pieksamaki-76280"
  },
  {
    "name": "Suonenjoki",
    "zip": "77600",
    "slug": "suonenjoki-77600"
  },
  {
    "name": "Suonenjoki",
    "zip": "77620",
    "slug": "suonenjoki-77620"
  },
  {
    "name": "Varkaus",
    "zip": "78200",
    "slug": "varkaus-78200"
  },
  {
    "name": "Varkaus",
    "zip": "78210",
    "slug": "varkaus-78210"
  },
  {
    "name": "Varkaus",
    "zip": "78250",
    "slug": "varkaus-78250"
  },
  {
    "name": "Varkaus",
    "zip": "78300",
    "slug": "varkaus-78300"
  },
  {
    "name": "Varkaus",
    "zip": "78310",
    "slug": "varkaus-78310"
  },
  {
    "name": "Varkaus",
    "zip": "78400",
    "slug": "varkaus-78400"
  },
  {
    "name": "Leppävirta",
    "zip": "79100",
    "slug": "leppavirta-79100"
  },
  {
    "name": "Leppävirta",
    "zip": "79130",
    "slug": "leppavirta-79130"
  },
  {
    "name": "Joroinen",
    "zip": "79600",
    "slug": "joroinen-79600"
  },
  {
    "name": "Heinävesi",
    "zip": "79700",
    "slug": "heinavesi-79700"
  },
  {
    "name": "Joensuu",
    "zip": "80100",
    "slug": "joensuu-80100"
  },
  {
    "name": "Joensuu",
    "zip": "80110",
    "slug": "joensuu-80110"
  },
  {
    "name": "Joensuu",
    "zip": "80130",
    "slug": "joensuu-80130"
  },
  {
    "name": "Joensuu",
    "zip": "80140",
    "slug": "joensuu-80140"
  },
  {
    "name": "Joensuu",
    "zip": "80160",
    "slug": "joensuu-80160"
  },
  {
    "name": "Joensuu",
    "zip": "80170",
    "slug": "joensuu-80170"
  },
  {
    "name": "Joensuu",
    "zip": "80200",
    "slug": "joensuu-80200"
  },
  {
    "name": "Joensuu",
    "zip": "80210",
    "slug": "joensuu-80210"
  },
  {
    "name": "Joensuu",
    "zip": "80220",
    "slug": "joensuu-80220"
  },
  {
    "name": "Joensuu",
    "zip": "80230",
    "slug": "joensuu-80230"
  },
  {
    "name": "Joensuu",
    "zip": "80260",
    "slug": "joensuu-80260"
  },
  {
    "name": "Kontiolahti",
    "zip": "80710",
    "slug": "kontiolahti-80710"
  },
  {
    "name": "Kontiolahti",
    "zip": "80720",
    "slug": "kontiolahti-80720"
  },
  {
    "name": "Kontiolahti",
    "zip": "80770",
    "slug": "kontiolahti-80770"
  },
  {
    "name": "Kontiolahti",
    "zip": "80780",
    "slug": "kontiolahti-80780"
  },
  {
    "name": "Kontiolahti",
    "zip": "81100",
    "slug": "kontiolahti-81100"
  },
  {
    "name": "Kontiolahti",
    "zip": "81120",
    "slug": "kontiolahti-81120"
  },
  {
    "name": "Kontiolahti",
    "zip": "81160",
    "slug": "kontiolahti-81160"
  },
  {
    "name": "Kontiolahti",
    "zip": "81190",
    "slug": "kontiolahti-81190"
  },
  {
    "name": "Kontiolahti",
    "zip": "81200",
    "slug": "kontiolahti-81200"
  },
  {
    "name": "Kontiolahti",
    "zip": "81220",
    "slug": "kontiolahti-81220"
  },
  {
    "name": "Kontiolahti",
    "zip": "81230",
    "slug": "kontiolahti-81230"
  },
  {
    "name": "Kontiolahti",
    "zip": "81235",
    "slug": "kontiolahti-81235"
  },
  {
    "name": "Kontiolahti",
    "zip": "81260",
    "slug": "kontiolahti-81260"
  },
  {
    "name": "Kontiolahti",
    "zip": "81270",
    "slug": "kontiolahti-81270"
  },
  {
    "name": "Kontiolahti",
    "zip": "81280",
    "slug": "kontiolahti-81280"
  },
  {
    "name": "Kontiolahti",
    "zip": "81290",
    "slug": "kontiolahti-81290"
  },
  {
    "name": "Kontiolahti",
    "zip": "81330",
    "slug": "kontiolahti-81330"
  },
  {
    "name": "Lieksa",
    "zip": "81700",
    "slug": "lieksa-81700"
  },
  {
    "name": "Lieksa",
    "zip": "81720",
    "slug": "lieksa-81720"
  },
  {
    "name": "Lieksa",
    "zip": "81750",
    "slug": "lieksa-81750"
  },
  {
    "name": "Lieksa",
    "zip": "81770",
    "slug": "lieksa-81770"
  },
  {
    "name": "Lieksa",
    "zip": "81820",
    "slug": "lieksa-81820"
  },
  {
    "name": "Rääkkylä",
    "zip": "82300",
    "slug": "raakkyla-82300"
  },
  {
    "name": "Kitee",
    "zip": "82500",
    "slug": "kitee-82500"
  },
  {
    "name": "Kitee",
    "zip": "82600",
    "slug": "kitee-82600"
  },
  {
    "name": "Tohmajärvi",
    "zip": "82600",
    "slug": "tohmajarvi-82600"
  },
  {
    "name": "Tohmajärvi",
    "zip": "82660",
    "slug": "tohmajarvi-82660"
  },
  {
    "name": "Ilomantsi",
    "zip": "82900",
    "slug": "ilomantsi-82900"
  },
  {
    "name": "Ilomantsi",
    "zip": "82950",
    "slug": "ilomantsi-82950"
  },
  {
    "name": "Liperi",
    "zip": "83100",
    "slug": "liperi-83100"
  },
  {
    "name": "Liperi",
    "zip": "83130",
    "slug": "liperi-83130"
  },
  {
    "name": "Liperi",
    "zip": "83150",
    "slug": "liperi-83150"
  },
  {
    "name": "Outokumpu",
    "zip": "83500",
    "slug": "outokumpu-83500"
  },
  {
    "name": "Outokumpu",
    "zip": "83560",
    "slug": "outokumpu-83560"
  },
  {
    "name": "Polvijärvi",
    "zip": "83700",
    "slug": "polvijarvi-83700"
  },
  {
    "name": "Polvijärvi",
    "zip": "83740",
    "slug": "polvijarvi-83740"
  },
  {
    "name": "Juuka",
    "zip": "83900",
    "slug": "juuka-83900"
  },
  {
    "name": "Juuka",
    "zip": "83950",
    "slug": "juuka-83950"
  },
  {
    "name": "Ylivieska",
    "zip": "84100",
    "slug": "ylivieska-84100"
  },
  {
    "name": "Ylivieska",
    "zip": "84430",
    "slug": "ylivieska-84430"
  },
  {
    "name": "Ylivieska",
    "zip": "84880",
    "slug": "ylivieska-84880"
  },
  {
    "name": "Ylivieska",
    "zip": "84920",
    "slug": "ylivieska-84920"
  },
  {
    "name": "Ylivieska",
    "zip": "84940",
    "slug": "ylivieska-84940"
  },
  {
    "name": "Ylivieska",
    "zip": "84960",
    "slug": "ylivieska-84960"
  },
  {
    "name": "Kalajoki",
    "zip": "85100",
    "slug": "kalajoki-85100"
  },
  {
    "name": "Kalajoki",
    "zip": "85120",
    "slug": "kalajoki-85120"
  },
  {
    "name": "Kalajoki",
    "zip": "85150",
    "slug": "kalajoki-85150"
  },
  {
    "name": "Kalajoki",
    "zip": "85160",
    "slug": "kalajoki-85160"
  },
  {
    "name": "Alavieska",
    "zip": "85200",
    "slug": "alavieska-85200"
  },
  {
    "name": "Sievi",
    "zip": "85410",
    "slug": "sievi-85410"
  },
  {
    "name": "Nivala",
    "zip": "85500",
    "slug": "nivala-85500"
  },
  {
    "name": "Nivala",
    "zip": "85540",
    "slug": "nivala-85540"
  },
  {
    "name": "Nivala",
    "zip": "85560",
    "slug": "nivala-85560"
  },
  {
    "name": "Nivala",
    "zip": "85580",
    "slug": "nivala-85580"
  },
  {
    "name": "Haapajärvi",
    "zip": "85800",
    "slug": "haapajarvi-85800"
  },
  {
    "name": "Haapajärvi",
    "zip": "85820",
    "slug": "haapajarvi-85820"
  },
  {
    "name": "Pyhäjoki",
    "zip": "86100",
    "slug": "pyhajoki-86100"
  },
  {
    "name": "Merijärvi",
    "zip": "86220",
    "slug": "merijarvi-86220"
  },
  {
    "name": "Oulainen",
    "zip": "86300",
    "slug": "oulainen-86300"
  },
  {
    "name": "Oulainen",
    "zip": "86400",
    "slug": "oulainen-86400"
  },
  {
    "name": "Vihanti",
    "zip": "86400",
    "slug": "vihanti-86400"
  },
  {
    "name": "Haapavesi",
    "zip": "86600",
    "slug": "haapavesi-86600"
  },
  {
    "name": "Kärsämäki",
    "zip": "86710",
    "slug": "karsamaki-86710"
  },
  {
    "name": "Pyhäjärvi",
    "zip": "86800",
    "slug": "pyhajarvi-86800"
  },
  {
    "name": "Pyhäjärvi",
    "zip": "86850",
    "slug": "pyhajarvi-86850"
  },
  {
    "name": "Kajaani",
    "zip": "87100",
    "slug": "kajaani-87100"
  },
  {
    "name": "Kajaani",
    "zip": "87150",
    "slug": "kajaani-87150"
  },
  {
    "name": "Kajaani",
    "zip": "87200",
    "slug": "kajaani-87200"
  },
  {
    "name": "Kajaani",
    "zip": "87250",
    "slug": "kajaani-87250"
  },
  {
    "name": "Kajaani",
    "zip": "87300",
    "slug": "kajaani-87300"
  },
  {
    "name": "Kajaani",
    "zip": "87400",
    "slug": "kajaani-87400"
  },
  {
    "name": "Kajaani",
    "zip": "87500",
    "slug": "kajaani-87500"
  },
  {
    "name": "Kajaani",
    "zip": "87700",
    "slug": "kajaani-87700"
  },
  {
    "name": "Kajaani",
    "zip": "87830",
    "slug": "kajaani-87830"
  },
  {
    "name": "Kajaani",
    "zip": "87850",
    "slug": "kajaani-87850"
  },
  {
    "name": "Kajaani",
    "zip": "87910",
    "slug": "kajaani-87910"
  },
  {
    "name": "Kajaani",
    "zip": "87930",
    "slug": "kajaani-87930"
  },
  {
    "name": "Kajaani",
    "zip": "87950",
    "slug": "kajaani-87950"
  },
  {
    "name": "Vuolijoki",
    "zip": "88270",
    "slug": "vuolijoki-88270"
  },
  {
    "name": "Paltamo",
    "zip": "88300",
    "slug": "paltamo-88300"
  },
  {
    "name": "Ristijärvi",
    "zip": "88400",
    "slug": "ristijarvi-88400"
  },
  {
    "name": "Sotkamo",
    "zip": "88600",
    "slug": "sotkamo-88600"
  },
  {
    "name": "Sotkamo",
    "zip": "88610",
    "slug": "sotkamo-88610"
  },
  {
    "name": "Sotkamo",
    "zip": "88620",
    "slug": "sotkamo-88620"
  },
  {
    "name": "Kuhmo",
    "zip": "88900",
    "slug": "kuhmo-88900"
  },
  {
    "name": "Kuhmo",
    "zip": "88930",
    "slug": "kuhmo-88930"
  },
  {
    "name": "Puolanka",
    "zip": "89200",
    "slug": "puolanka-89200"
  },
  {
    "name": "Hyrynsalmi",
    "zip": "89400",
    "slug": "hyrynsalmi-89400"
  },
  {
    "name": "Suomussalmi",
    "zip": "89600",
    "slug": "suomussalmi-89600"
  },
  {
    "name": "Suomussalmi",
    "zip": "89610",
    "slug": "suomussalmi-89610"
  },
  {
    "name": "Oulu",
    "zip": "90100",
    "slug": "oulu-90100"
  },
  {
    "name": "Oulu",
    "zip": "90110",
    "slug": "oulu-90110"
  },
  {
    "name": "Oulu",
    "zip": "90120",
    "slug": "oulu-90120"
  },
  {
    "name": "Oulu",
    "zip": "90130",
    "slug": "oulu-90130"
  },
  {
    "name": "Oulu",
    "zip": "90140",
    "slug": "oulu-90140"
  },
  {
    "name": "Oulu",
    "zip": "90150",
    "slug": "oulu-90150"
  },
  {
    "name": "Oulu",
    "zip": "90220",
    "slug": "oulu-90220"
  },
  {
    "name": "Oulu",
    "zip": "90230",
    "slug": "oulu-90230"
  },
  {
    "name": "Oulu",
    "zip": "90240",
    "slug": "oulu-90240"
  },
  {
    "name": "Oulu",
    "zip": "90250",
    "slug": "oulu-90250"
  },
  {
    "name": "Oulu",
    "zip": "90310",
    "slug": "oulu-90310"
  },
  {
    "name": "Oulu",
    "zip": "90400",
    "slug": "oulu-90400"
  },
  {
    "name": "Oulu",
    "zip": "90410",
    "slug": "oulu-90410"
  },
  {
    "name": "Oulu",
    "zip": "90420",
    "slug": "oulu-90420"
  },
  {
    "name": "Oulu",
    "zip": "90440",
    "slug": "oulu-90440"
  },
  {
    "name": "Kempele",
    "zip": "90440",
    "slug": "kempele-90440"
  },
  {
    "name": "Oulu",
    "zip": "90450",
    "slug": "oulu-90450"
  },
  {
    "name": "Kempele",
    "zip": "90450",
    "slug": "kempele-90450"
  },
  {
    "name": "Oulu",
    "zip": "90460",
    "slug": "oulu-90460"
  },
  {
    "name": "Oulunsalo",
    "zip": "90460",
    "slug": "oulunsalo-90460"
  },
  {
    "name": "Hailuoto",
    "zip": "90480",
    "slug": "hailuoto-90480"
  },
  {
    "name": "Oulu",
    "zip": "90500",
    "slug": "oulu-90500"
  },
  {
    "name": "Oulu",
    "zip": "90510",
    "slug": "oulu-90510"
  },
  {
    "name": "Oulu",
    "zip": "90520",
    "slug": "oulu-90520"
  },
  {
    "name": "Oulu",
    "zip": "90530",
    "slug": "oulu-90530"
  },
  {
    "name": "Oulu",
    "zip": "90540",
    "slug": "oulu-90540"
  },
  {
    "name": "Oulu",
    "zip": "90550",
    "slug": "oulu-90550"
  },
  {
    "name": "Oulu",
    "zip": "90560",
    "slug": "oulu-90560"
  },
  {
    "name": "Oulu",
    "zip": "90570",
    "slug": "oulu-90570"
  },
  {
    "name": "Oulu",
    "zip": "90580",
    "slug": "oulu-90580"
  },
  {
    "name": "Oulu",
    "zip": "90590",
    "slug": "oulu-90590"
  },
  {
    "name": "Oulu",
    "zip": "90620",
    "slug": "oulu-90620"
  },
  {
    "name": "Oulu",
    "zip": "90630",
    "slug": "oulu-90630"
  },
  {
    "name": "Oulu",
    "zip": "90650",
    "slug": "oulu-90650"
  },
  {
    "name": "Oulu",
    "zip": "90800",
    "slug": "oulu-90800"
  },
  {
    "name": "Oulu",
    "zip": "90810",
    "slug": "oulu-90810"
  },
  {
    "name": "Oulu",
    "zip": "90820",
    "slug": "oulu-90820"
  },
  {
    "name": "Oulu",
    "zip": "90830",
    "slug": "oulu-90830"
  },
  {
    "name": "Oulu",
    "zip": "90840",
    "slug": "oulu-90840"
  },
  {
    "name": "Oulu",
    "zip": "90850",
    "slug": "oulu-90850"
  },
  {
    "name": "Ii",
    "zip": "91100",
    "slug": "ii-91100"
  },
  {
    "name": "Ii",
    "zip": "91110",
    "slug": "ii-91110"
  },
  {
    "name": "Muhos",
    "zip": "91500",
    "slug": "muhos-91500"
  },
  {
    "name": "Muhos",
    "zip": "91510",
    "slug": "muhos-91510"
  },
  {
    "name": "Utajärvi",
    "zip": "91600",
    "slug": "utajarvi-91600"
  },
  {
    "name": "Vaala",
    "zip": "91700",
    "slug": "vaala-91700"
  },
  {
    "name": "Tyrnävä",
    "zip": "91800",
    "slug": "tyrnava-91800"
  },
  {
    "name": "Tyrnävä",
    "zip": "91810",
    "slug": "tyrnava-91810"
  },
  {
    "name": "Liminka",
    "zip": "91900",
    "slug": "liminka-91900"
  },
  {
    "name": "Liminka",
    "zip": "91910",
    "slug": "liminka-91910"
  },
  {
    "name": "Lumijoki",
    "zip": "91980",
    "slug": "lumijoki-91980"
  },
  {
    "name": "Raahe",
    "zip": "92100",
    "slug": "raahe-92100"
  },
  {
    "name": "Raahe",
    "zip": "92120",
    "slug": "raahe-92120"
  },
  {
    "name": "Raahe",
    "zip": "92130",
    "slug": "raahe-92130"
  },
  {
    "name": "Raahe",
    "zip": "92140",
    "slug": "raahe-92140"
  },
  {
    "name": "Raahe",
    "zip": "92150",
    "slug": "raahe-92150"
  },
  {
    "name": "Raahe",
    "zip": "92160",
    "slug": "raahe-92160"
  },
  {
    "name": "Raahe",
    "zip": "92210",
    "slug": "raahe-92210"
  },
  {
    "name": "Raahe",
    "zip": "92220",
    "slug": "raahe-92220"
  },
  {
    "name": "Raahe",
    "zip": "92230",
    "slug": "raahe-92230"
  },
  {
    "name": "Raahe",
    "zip": "92260",
    "slug": "raahe-92260"
  },
  {
    "name": "Siikalatva",
    "zip": "92320",
    "slug": "siikalatva-92320"
  },
  {
    "name": "Siikajoki",
    "zip": "92400",
    "slug": "siikajoki-92400"
  },
  {
    "name": "Rantsila",
    "zip": "92400",
    "slug": "rantsila-92400"
  },
  {
    "name": "Pulkkila",
    "zip": "92600",
    "slug": "pulkkila-92600"
  },
  {
    "name": "Piippola",
    "zip": "92620",
    "slug": "piippola-92620"
  },
  {
    "name": "Kestilä",
    "zip": "92700",
    "slug": "kestila-92700"
  },
  {
    "name": "Pyhäntä",
    "zip": "92900",
    "slug": "pyhanta-92900"
  },
  {
    "name": "Pudasjärvi",
    "zip": "93100",
    "slug": "pudasjarvi-93100"
  },
  {
    "name": "Pudasjärvi",
    "zip": "93140",
    "slug": "pudasjarvi-93140"
  },
  {
    "name": "Taivalkoski",
    "zip": "93400",
    "slug": "taivalkoski-93400"
  },
  {
    "name": "Taivalkoski",
    "zip": "93420",
    "slug": "taivalkoski-93420"
  },
  {
    "name": "Kuusamo",
    "zip": "93600",
    "slug": "kuusamo-93600"
  },
  {
    "name": "Kuusamo",
    "zip": "93620",
    "slug": "kuusamo-93620"
  },
  {
    "name": "Kuusamo",
    "zip": "93800",
    "slug": "kuusamo-93800"
  },
  {
    "name": "Kuusamo",
    "zip": "93830",
    "slug": "kuusamo-93830"
  },
  {
    "name": "Kuusamo",
    "zip": "93920",
    "slug": "kuusamo-93920"
  },
  {
    "name": "Kuusamo",
    "zip": "93990",
    "slug": "kuusamo-93990"
  },
  {
    "name": "Kemi",
    "zip": "94100",
    "slug": "kemi-94100"
  },
  {
    "name": "Kemi",
    "zip": "94130",
    "slug": "kemi-94130"
  },
  {
    "name": "Kemi",
    "zip": "94200",
    "slug": "kemi-94200"
  },
  {
    "name": "Kemi",
    "zip": "94300",
    "slug": "kemi-94300"
  },
  {
    "name": "Kemi",
    "zip": "94450",
    "slug": "kemi-94450"
  },
  {
    "name": "Kemi",
    "zip": "94500",
    "slug": "kemi-94500"
  },
  {
    "name": "Kemi",
    "zip": "94600",
    "slug": "kemi-94600"
  },
  {
    "name": "Kemi",
    "zip": "94700",
    "slug": "kemi-94700"
  },
  {
    "name": "Kemi",
    "zip": "94830",
    "slug": "kemi-94830"
  },
  {
    "name": "Tornio",
    "zip": "95400",
    "slug": "tornio-95400"
  },
  {
    "name": "Tornio",
    "zip": "95410",
    "slug": "tornio-95410"
  },
  {
    "name": "Tornio",
    "zip": "95420",
    "slug": "tornio-95420"
  },
  {
    "name": "Tornio",
    "zip": "95430",
    "slug": "tornio-95430"
  },
  {
    "name": "Tornio",
    "zip": "95440",
    "slug": "tornio-95440"
  },
  {
    "name": "Tornio",
    "zip": "95450",
    "slug": "tornio-95450"
  },
  {
    "name": "Tornio",
    "zip": "95490",
    "slug": "tornio-95490"
  },
  {
    "name": "Tornio",
    "zip": "95540",
    "slug": "tornio-95540"
  },
  {
    "name": "Tornio",
    "zip": "95590",
    "slug": "tornio-95590"
  },
  {
    "name": "Tornio",
    "zip": "95610",
    "slug": "tornio-95610"
  },
  {
    "name": "Tornio",
    "zip": "95620",
    "slug": "tornio-95620"
  },
  {
    "name": "Tornio",
    "zip": "95630",
    "slug": "tornio-95630"
  },
  {
    "name": "Pello",
    "zip": "95700",
    "slug": "pello-95700"
  },
  {
    "name": "Pello",
    "zip": "95725",
    "slug": "pello-95725"
  },
  {
    "name": "Pello",
    "zip": "95780",
    "slug": "pello-95780"
  },
  {
    "name": "Kolari",
    "zip": "95900",
    "slug": "kolari-95900"
  },
  {
    "name": "Kolari",
    "zip": "95910",
    "slug": "kolari-95910"
  },
  {
    "name": "Kolari",
    "zip": "95920",
    "slug": "kolari-95920"
  },
  {
    "name": "Kolari",
    "zip": "95930",
    "slug": "kolari-95930"
  },
  {
    "name": "Kolari",
    "zip": "95940",
    "slug": "kolari-95940"
  },
  {
    "name": "Kolari",
    "zip": "95950",
    "slug": "kolari-95950"
  },
  {
    "name": "Kolari",
    "zip": "95960",
    "slug": "kolari-95960"
  },
  {
    "name": "Kolari",
    "zip": "95970",
    "slug": "kolari-95970"
  },
  {
    "name": "Kolari",
    "zip": "95980",
    "slug": "kolari-95980"
  },
  {
    "name": "Kolari",
    "zip": "95990",
    "slug": "kolari-95990"
  },
  {
    "name": "Rovaniemi",
    "zip": "96100",
    "slug": "rovaniemi-96100"
  },
  {
    "name": "Rovaniemi",
    "zip": "96190",
    "slug": "rovaniemi-96190"
  },
  {
    "name": "Rovaniemi",
    "zip": "96200",
    "slug": "rovaniemi-96200"
  },
  {
    "name": "Rovaniemi",
    "zip": "96300",
    "slug": "rovaniemi-96300"
  },
  {
    "name": "Rovaniemi",
    "zip": "96320",
    "slug": "rovaniemi-96320"
  },
  {
    "name": "Rovaniemi",
    "zip": "96400",
    "slug": "rovaniemi-96400"
  },
  {
    "name": "Rovaniemi",
    "zip": "96440",
    "slug": "rovaniemi-96440"
  },
  {
    "name": "Rovaniemi",
    "zip": "96460",
    "slug": "rovaniemi-96460"
  },
  {
    "name": "Rovaniemi",
    "zip": "96500",
    "slug": "rovaniemi-96500"
  },
  {
    "name": "Rovaniemi",
    "zip": "96600",
    "slug": "rovaniemi-96600"
  },
  {
    "name": "Ranua",
    "zip": "97700",
    "slug": "ranua-97700"
  },
  {
    "name": "Ranua",
    "zip": "97720",
    "slug": "ranua-97720"
  },
  {
    "name": "Ranua",
    "zip": "97760",
    "slug": "ranua-97760"
  },
  {
    "name": "Ranua",
    "zip": "97780",
    "slug": "ranua-97780"
  },
  {
    "name": "Posio",
    "zip": "97900",
    "slug": "posio-97900"
  },
  {
    "name": "Posio",
    "zip": "97940",
    "slug": "posio-97940"
  },
  {
    "name": "Posio",
    "zip": "97980",
    "slug": "posio-97980"
  },
  {
    "name": "Kemijärvi",
    "zip": "98100",
    "slug": "kemijarvi-98100"
  },
  {
    "name": "Kemijärvi",
    "zip": "98120",
    "slug": "kemijarvi-98120"
  },
  {
    "name": "Kemijärvi",
    "zip": "98160",
    "slug": "kemijarvi-98160"
  },
  {
    "name": "Kemijärvi",
    "zip": "98220",
    "slug": "kemijarvi-98220"
  },
  {
    "name": "Kemijärvi",
    "zip": "98310",
    "slug": "kemijarvi-98310"
  },
  {
    "name": "Kemijärvi",
    "zip": "98350",
    "slug": "kemijarvi-98350"
  },
  {
    "name": "Kemijärvi",
    "zip": "98360",
    "slug": "kemijarvi-98360"
  },
  {
    "name": "Kemijärvi",
    "zip": "98400",
    "slug": "kemijarvi-98400"
  },
  {
    "name": "Kemijärvi",
    "zip": "98430",
    "slug": "kemijarvi-98430"
  },
  {
    "name": "Kemijärvi",
    "zip": "98450",
    "slug": "kemijarvi-98450"
  },
  {
    "name": "Kemijärvi",
    "zip": "98500",
    "slug": "kemijarvi-98500"
  },
  {
    "name": "Kemijärvi",
    "zip": "98530",
    "slug": "kemijarvi-98530"
  },
  {
    "name": "Kemijärvi",
    "zip": "98580",
    "slug": "kemijarvi-98580"
  },
  {
    "name": "Savukoski",
    "zip": "98800",
    "slug": "savukoski-98800"
  },
  {
    "name": "Savukoski",
    "zip": "98820",
    "slug": "savukoski-98820"
  },
  {
    "name": "Savukoski",
    "zip": "98850",
    "slug": "savukoski-98850"
  },
  {
    "name": "Salla",
    "zip": "98900",
    "slug": "salla-98900"
  },
  {
    "name": "Salla",
    "zip": "98920",
    "slug": "salla-98920"
  },
  {
    "name": "Salla",
    "zip": "98950",
    "slug": "salla-98950"
  },
  {
    "name": "Salla",
    "zip": "98980",
    "slug": "salla-98980"
  },
  {
    "name": "Salla",
    "zip": "98999",
    "slug": "salla-98999"
  },
  {
    "name": "Kittilä",
    "zip": "99100",
    "slug": "kittila-99100"
  },
  {
    "name": "Kittilä",
    "zip": "99120",
    "slug": "kittila-99120"
  },
  {
    "name": "Kittilä",
    "zip": "99130",
    "slug": "kittila-99130"
  },
  {
    "name": "Enontekiö",
    "zip": "99300",
    "slug": "enontekio-99300"
  },
  {
    "name": "Muonio",
    "zip": "99300",
    "slug": "muonio-99300"
  },
  {
    "name": "Muonio",
    "zip": "99320",
    "slug": "muonio-99320"
  },
  {
    "name": "Enontekiö",
    "zip": "99330",
    "slug": "enontekio-99330"
  },
  {
    "name": "Enontekiö",
    "zip": "99400",
    "slug": "enontekio-99400"
  },
  {
    "name": "Sodankylä",
    "zip": "99600",
    "slug": "sodankyla-99600"
  },
  {
    "name": "Sodankylä",
    "zip": "99610",
    "slug": "sodankyla-99610"
  },
  {
    "name": "Sodankylä",
    "zip": "99690",
    "slug": "sodankyla-99690"
  },
  {
    "name": "Sodankylä",
    "zip": "99700",
    "slug": "sodankyla-99700"
  },
  {
    "name": "Inari",
    "zip": "99800",
    "slug": "inari-99800"
  },
  {
    "name": "Inari",
    "zip": "99830",
    "slug": "inari-99830"
  },
  {
    "name": "Inari",
    "zip": "99860",
    "slug": "inari-99860"
  },
  {
    "name": "Inari",
    "zip": "99870",
    "slug": "inari-99870"
  },
  {
    "name": "Inari",
    "zip": "99880",
    "slug": "inari-99880"
  },
  {
    "name": "Utsjoki",
    "zip": "99980",
    "slug": "utsjoki-99980"
  },
  {
    "name": "Utsjoki",
    "zip": "99990",
    "slug": "utsjoki-99990"
  }
]